<?xml version="1.0" encoding="UTF-8"?>
<gpx creator="StravaGPX" version="1.1" xmlns="http://www.topografix.com/GPX/1/1" xmlns:xsi="http://www.w3.org/2001/XMLSchema-instance" xsi:schemaLocation="http://www.topografix.com/GPX/1/1 http://www.topografix.com/GPX/1/1/gpx.xsd">
 <metadata>
  <name>10k MM Igualada</name>
  <desc>TFG</desc>
  <author>
   <name>Martí Claramunt</name>
   <link href="https://www.strava.com/athletes/63663471"/>
  </author>
  <copyright author="OpenStreetMap contributors">
   <year>2020</year>
   <license>https://www.openstreetmap.org/copyright</license>
  </copyright>
  <link href="https://www.strava.com/routes/3535032496538626110"/>
 </metadata>
 <trk>
  <name>10k MM Igualada</name>
  <desc>TFG</desc>
  <link href="https://www.strava.com/routes/3535032496538626110"/>
  <type>running</type>
  <trkseg>
   <trkpt lat="41.58578000000001" lon="1.62592">
    <ele>339.81</ele>
   </trkpt>
   <trkpt lat="41.586035001898004" lon="1.6252500027691308">
    <ele>340.68</ele>
   </trkpt>
   <trkpt lat="41.586290000000005" lon="1.6245800000000001">
    <ele>341.12</ele>
   </trkpt>
   <trkpt lat="41.58632" lon="1.6244200000000002">
    <ele>341.59</ele>
   </trkpt>
   <trkpt lat="41.586400000000005" lon="1.6243100000000001">
    <ele>341.59</ele>
   </trkpt>
   <trkpt lat="41.58678000866137" lon="1.6233100117802857">
    <ele>342.6</ele>
   </trkpt>
   <trkpt lat="41.58716000865805" lon="1.622310011789202">
    <ele>344.16</ele>
   </trkpt>
   <trkpt lat="41.587540000000004" lon="1.62131">
    <ele>346.73</ele>
   </trkpt>
   <trkpt lat="41.587680000000006" lon="1.6212000000000002">
    <ele>348.1</ele>
   </trkpt>
   <trkpt lat="41.58776" lon="1.6211700000000002">
    <ele>348.1</ele>
   </trkpt>
   <trkpt lat="41.58784" lon="1.6210700000000002">
    <ele>348.48</ele>
   </trkpt>
   <trkpt lat="41.587900000000005" lon="1.6208900000000002">
    <ele>349.2</ele>
   </trkpt>
   <trkpt lat="41.58782" lon="1.6208200000000001">
    <ele>349.1</ele>
   </trkpt>
   <trkpt lat="41.58778" lon="1.6207500000000001">
    <ele>348.86</ele>
   </trkpt>
   <trkpt lat="41.5878" lon="1.62054">
    <ele>348.55</ele>
   </trkpt>
   <trkpt lat="41.58775000000001" lon="1.6205100000000001">
    <ele>348.55</ele>
   </trkpt>
   <trkpt lat="41.58787" lon="1.6201900000000002">
    <ele>348.99</ele>
   </trkpt>
   <trkpt lat="41.588010000000004" lon="1.6200500000000002">
    <ele>349.78000000000003</ele>
   </trkpt>
   <trkpt lat="41.588260002020036" lon="1.6193900022050511">
    <ele>352.84000000000003</ele>
   </trkpt>
   <trkpt lat="41.58851000000001" lon="1.6187300000000002">
    <ele>354.19</ele>
   </trkpt>
   <trkpt lat="41.58858" lon="1.6186200000000002">
    <ele>354.40999999999997</ele>
   </trkpt>
   <trkpt lat="41.588620000000006" lon="1.61864">
    <ele>354.40999999999997</ele>
   </trkpt>
   <trkpt lat="41.58863" lon="1.6185200000000002">
    <ele>354.63000000000005</ele>
   </trkpt>
   <trkpt lat="41.588923339167934" lon="1.6177000074282508">
    <ele>355.77000000000004</ele>
   </trkpt>
   <trkpt lat="41.58921667250967" lon="1.6168800074048704">
    <ele>356.21000000000004</ele>
   </trkpt>
   <trkpt lat="41.589510000000004" lon="1.61606">
    <ele>356.32</ele>
   </trkpt>
   <trkpt lat="41.58939" lon="1.6160100000000002">
    <ele>356.64</ele>
   </trkpt>
   <trkpt lat="41.589310000000005" lon="1.6159400000000002">
    <ele>356.97</ele>
   </trkpt>
   <trkpt lat="41.58939" lon="1.61569">
    <ele>357.07000000000005</ele>
   </trkpt>
   <trkpt lat="41.589380000000006" lon="1.61555">
    <ele>357.07000000000005</ele>
   </trkpt>
   <trkpt lat="41.58935" lon="1.6154700000000002">
    <ele>357.04</ele>
   </trkpt>
   <trkpt lat="41.589380000000006" lon="1.61539">
    <ele>357.1</ele>
   </trkpt>
   <trkpt lat="41.58941" lon="1.6153600000000001">
    <ele>357.1</ele>
   </trkpt>
   <trkpt lat="41.58945000000001" lon="1.61535">
    <ele>357.1</ele>
   </trkpt>
   <trkpt lat="41.589490000000005" lon="1.6153600000000001">
    <ele>357.16</ele>
   </trkpt>
   <trkpt lat="41.589740000000006" lon="1.61484">
    <ele>357.07000000000005</ele>
   </trkpt>
   <trkpt lat="41.589850000000006" lon="1.61416">
    <ele>356.42</ele>
   </trkpt>
   <trkpt lat="41.590100002178765" lon="1.6134600025543837">
    <ele>356.1</ele>
   </trkpt>
   <trkpt lat="41.59035" lon="1.6127600000000002">
    <ele>356.18000000000006</ele>
   </trkpt>
   <trkpt lat="41.590270000000004" lon="1.6126500000000001">
    <ele>356.18000000000006</ele>
   </trkpt>
   <trkpt lat="41.59035" lon="1.6126900000000002">
    <ele>355.94000000000005</ele>
   </trkpt>
   <trkpt lat="41.59049" lon="1.61251">
    <ele>355.45000000000005</ele>
   </trkpt>
   <trkpt lat="41.590770000000006" lon="1.6117500000000002">
    <ele>354.53000000000003</ele>
   </trkpt>
   <trkpt lat="41.590960001360564" lon="1.6112050013926533">
    <ele>354.1</ele>
   </trkpt>
   <trkpt lat="41.591150000000006" lon="1.6106600000000002">
    <ele>353.92</ele>
   </trkpt>
   <trkpt lat="41.59127" lon="1.6098500000000002">
    <ele>352.02000000000004</ele>
   </trkpt>
   <trkpt lat="41.59129" lon="1.6093700000000002">
    <ele>350.48</ele>
   </trkpt>
   <trkpt lat="41.591280000000005" lon="1.60888">
    <ele>348.29</ele>
   </trkpt>
   <trkpt lat="41.591240000000006" lon="1.6085600000000002">
    <ele>347.48</ele>
   </trkpt>
   <trkpt lat="41.591170000000005" lon="1.60854">
    <ele>347.52000000000004</ele>
   </trkpt>
   <trkpt lat="41.591260000000005" lon="1.6083100000000001">
    <ele>346.82</ele>
   </trkpt>
   <trkpt lat="41.591190000000005" lon="1.6078800000000002">
    <ele>344.28000000000003</ele>
   </trkpt>
   <trkpt lat="41.59123" lon="1.6075400000000002">
    <ele>343.24000000000007</ele>
   </trkpt>
   <trkpt lat="41.591060000000006" lon="1.6064900000000002">
    <ele>342.91</ele>
   </trkpt>
   <trkpt lat="41.590830000000004" lon="1.6053300000000001">
    <ele>346.14</ele>
   </trkpt>
   <trkpt lat="41.59071333902008" lon="1.6045199970839201">
    <ele>346.83000000000004</ele>
   </trkpt>
   <trkpt lat="41.59059667235507" lon="1.6037099970955162">
    <ele>345.48</ele>
   </trkpt>
   <trkpt lat="41.59048000000001" lon="1.6029000000000002">
    <ele>343.77000000000004</ele>
   </trkpt>
   <trkpt lat="41.590410000000006" lon="1.6026900000000002">
    <ele>343.2</ele>
   </trkpt>
   <trkpt lat="41.590320000000006" lon="1.6025600000000002">
    <ele>342.68</ele>
   </trkpt>
   <trkpt lat="41.590230000000005" lon="1.6024800000000001">
    <ele>342.68</ele>
   </trkpt>
   <trkpt lat="41.590090000000004" lon="1.6024">
    <ele>342.14000000000004</ele>
   </trkpt>
   <trkpt lat="41.58995" lon="1.60237">
    <ele>342.14000000000004</ele>
   </trkpt>
   <trkpt lat="41.589960000000005" lon="1.60237">
    <ele>342.14000000000004</ele>
   </trkpt>
   <trkpt lat="41.589830000000006" lon="1.60237">
    <ele>342.14000000000004</ele>
   </trkpt>
   <trkpt lat="41.58954000000001" lon="1.6026300000000002">
    <ele>340.71</ele>
   </trkpt>
   <trkpt lat="41.5889950019466" lon="1.6033050057322011">
    <ele>339.57000000000005</ele>
   </trkpt>
   <trkpt lat="41.58845" lon="1.6039800000000002">
    <ele>338.15</ele>
   </trkpt>
   <trkpt lat="41.587950000000006" lon="1.6045500000000001">
    <ele>338.06</ele>
   </trkpt>
   <trkpt lat="41.58793" lon="1.6044600000000002">
    <ele>338.04</ele>
   </trkpt>
   <trkpt lat="41.587270000000004" lon="1.6047000000000002">
    <ele>336.56</ele>
   </trkpt>
   <trkpt lat="41.586646667171756" lon="1.6049333378262647">
    <ele>334.97</ele>
   </trkpt>
   <trkpt lat="41.58602333387175" lon="1.60516667114706">
    <ele>333.84000000000003</ele>
   </trkpt>
   <trkpt lat="41.5854" lon="1.6054000000000002">
    <ele>332.99</ele>
   </trkpt>
   <trkpt lat="41.585170000000005" lon="1.60542">
    <ele>332.04</ele>
   </trkpt>
   <trkpt lat="41.584720000000004" lon="1.6053600000000001">
    <ele>330.15000000000003</ele>
   </trkpt>
   <trkpt lat="41.584590000000006" lon="1.60532">
    <ele>329.65000000000003</ele>
   </trkpt>
   <trkpt lat="41.58446" lon="1.6052400000000002">
    <ele>328.78000000000003</ele>
   </trkpt>
   <trkpt lat="41.584390000000006" lon="1.6051600000000001">
    <ele>328.78000000000003</ele>
   </trkpt>
   <trkpt lat="41.58410000000001" lon="1.6047200000000001">
    <ele>324.96000000000004</ele>
   </trkpt>
   <trkpt lat="41.58397" lon="1.60467">
    <ele>324.34000000000003</ele>
   </trkpt>
   <trkpt lat="41.583780000000004" lon="1.6046500000000001">
    <ele>324.34000000000003</ele>
   </trkpt>
   <trkpt lat="41.583760000000005" lon="1.6047600000000002">
    <ele>320.89</ele>
   </trkpt>
   <trkpt lat="41.58351500218812" lon="1.6054650025747201">
    <ele>317.63</ele>
   </trkpt>
   <trkpt lat="41.583270000000006" lon="1.60617">
    <ele>315.62</ele>
   </trkpt>
   <trkpt lat="41.58315" lon="1.60637">
    <ele>315.93000000000006</ele>
   </trkpt>
   <trkpt lat="41.583020000000005" lon="1.60651">
    <ele>316.6</ele>
   </trkpt>
   <trkpt lat="41.58297" lon="1.6067300000000002">
    <ele>319.48</ele>
   </trkpt>
   <trkpt lat="41.58297" lon="1.6068200000000001">
    <ele>319.24</ele>
   </trkpt>
   <trkpt lat="41.58297" lon="1.6068300000000002">
    <ele>319.23</ele>
   </trkpt>
   <trkpt lat="41.58297" lon="1.6067300000000002">
    <ele>319.48</ele>
   </trkpt>
   <trkpt lat="41.58287000000001" lon="1.6065600000000002">
    <ele>317.02000000000004</ele>
   </trkpt>
   <trkpt lat="41.582770000000004" lon="1.6065300000000002">
    <ele>316.8</ele>
   </trkpt>
   <trkpt lat="41.582710000000006" lon="1.60654">
    <ele>316.8</ele>
   </trkpt>
   <trkpt lat="41.58265" lon="1.6065800000000001">
    <ele>316.54</ele>
   </trkpt>
   <trkpt lat="41.582530000000006" lon="1.6065300000000002">
    <ele>315.61</ele>
   </trkpt>
   <trkpt lat="41.5818" lon="1.6061200000000002">
    <ele>313.14000000000004</ele>
   </trkpt>
   <trkpt lat="41.5818" lon="1.60603">
    <ele>313.14000000000004</ele>
   </trkpt>
   <trkpt lat="41.581770000000006" lon="1.6059500000000002">
    <ele>312.37</ele>
   </trkpt>
   <trkpt lat="41.58173" lon="1.6058800000000002">
    <ele>312.37</ele>
   </trkpt>
   <trkpt lat="41.58164" lon="1.60582">
    <ele>311.98</ele>
   </trkpt>
   <trkpt lat="41.58151" lon="1.6058500000000002">
    <ele>311.98</ele>
   </trkpt>
   <trkpt lat="41.58147" lon="1.60589">
    <ele>312.44000000000005</ele>
   </trkpt>
   <trkpt lat="41.58142" lon="1.606">
    <ele>312.44000000000005</ele>
   </trkpt>
   <trkpt lat="41.5812" lon="1.60589">
    <ele>312.02000000000004</ele>
   </trkpt>
   <trkpt lat="41.58109" lon="1.6058700000000001">
    <ele>311.74</ele>
   </trkpt>
   <trkpt lat="41.581" lon="1.6058800000000002">
    <ele>311.09000000000003</ele>
   </trkpt>
   <trkpt lat="41.58093" lon="1.6059100000000002">
    <ele>311.09000000000003</ele>
   </trkpt>
   <trkpt lat="41.58077" lon="1.6060200000000002">
    <ele>310.13</ele>
   </trkpt>
   <trkpt lat="41.580670000000005" lon="1.6061100000000001">
    <ele>309.3</ele>
   </trkpt>
   <trkpt lat="41.580120002205994" lon="1.6068050057758274">
    <ele>306.44000000000005</ele>
   </trkpt>
   <trkpt lat="41.579570000000004" lon="1.6075000000000002">
    <ele>305.38000000000005</ele>
   </trkpt>
   <trkpt lat="41.579530000000005" lon="1.60766">
    <ele>305.65000000000003</ele>
   </trkpt>
   <trkpt lat="41.579550000000005" lon="1.60783">
    <ele>305.65000000000003</ele>
   </trkpt>
   <trkpt lat="41.579510000000006" lon="1.60786">
    <ele>305.65000000000003</ele>
   </trkpt>
   <trkpt lat="41.579460000000005" lon="1.60796">
    <ele>305.83000000000004</ele>
   </trkpt>
   <trkpt lat="41.579460000000005" lon="1.6080800000000002">
    <ele>305.83000000000004</ele>
   </trkpt>
   <trkpt lat="41.57949000000001" lon="1.60813">
    <ele>305.83000000000004</ele>
   </trkpt>
   <trkpt lat="41.57883000145753" lon="1.6087200060747229">
    <ele>305.39000000000004</ele>
   </trkpt>
   <trkpt lat="41.57817" lon="1.6093100000000002">
    <ele>305.21000000000004</ele>
   </trkpt>
   <trkpt lat="41.57781000000001" lon="1.6097000000000001">
    <ele>304.85</ele>
   </trkpt>
   <trkpt lat="41.57764" lon="1.60993">
    <ele>304.08</ele>
   </trkpt>
   <trkpt lat="41.577400000000004" lon="1.6101900000000002">
    <ele>304.1</ele>
   </trkpt>
   <trkpt lat="41.577110000000005" lon="1.61057">
    <ele>304.22</ele>
   </trkpt>
   <trkpt lat="41.57678000000001" lon="1.6111400000000002">
    <ele>304.03000000000003</ele>
   </trkpt>
   <trkpt lat="41.57635000345541" lon="1.6120400061042284">
    <ele>303.85</ele>
   </trkpt>
   <trkpt lat="41.57592" lon="1.61294">
    <ele>302.96</ele>
   </trkpt>
   <trkpt lat="41.5758" lon="1.61332">
    <ele>302.96</ele>
   </trkpt>
   <trkpt lat="41.575750000000006" lon="1.61355">
    <ele>302.33000000000004</ele>
   </trkpt>
   <trkpt lat="41.57571" lon="1.6139800000000002">
    <ele>302.25</ele>
   </trkpt>
   <trkpt lat="41.575720000000004" lon="1.6146">
    <ele>301.9</ele>
   </trkpt>
   <trkpt lat="41.575770000000006" lon="1.6149000000000002">
    <ele>301.78000000000003</ele>
   </trkpt>
   <trkpt lat="41.57583" lon="1.6150600000000002">
    <ele>301.78000000000003</ele>
   </trkpt>
   <trkpt lat="41.5758" lon="1.6151200000000001">
    <ele>301.58</ele>
   </trkpt>
   <trkpt lat="41.57583" lon="1.6152000000000002">
    <ele>301.58</ele>
   </trkpt>
   <trkpt lat="41.57587" lon="1.61521">
    <ele>301.58</ele>
   </trkpt>
   <trkpt lat="41.575900000000004" lon="1.61538">
    <ele>301.58</ele>
   </trkpt>
   <trkpt lat="41.576010000000004" lon="1.61565">
    <ele>301.56000000000006</ele>
   </trkpt>
   <trkpt lat="41.57636500174258" lon="1.6162799965782941">
    <ele>301.87</ele>
   </trkpt>
   <trkpt lat="41.57672" lon="1.61691">
    <ele>302.83000000000004</ele>
   </trkpt>
   <trkpt lat="41.576840000000004" lon="1.61715">
    <ele>302.94000000000005</ele>
   </trkpt>
   <trkpt lat="41.576950000000004" lon="1.61748">
    <ele>302.96</ele>
   </trkpt>
   <trkpt lat="41.576980000000006" lon="1.6177100000000002">
    <ele>302.70000000000005</ele>
   </trkpt>
   <trkpt lat="41.576980000000006" lon="1.6183400000000001">
    <ele>302.71000000000004</ele>
   </trkpt>
   <trkpt lat="41.57706" lon="1.61884">
    <ele>302.6</ele>
   </trkpt>
   <trkpt lat="41.57706" lon="1.6189300000000002">
    <ele>302.6</ele>
   </trkpt>
   <trkpt lat="41.57697" lon="1.61921">
    <ele>302.28000000000003</ele>
   </trkpt>
   <trkpt lat="41.57694" lon="1.6193700000000002">
    <ele>302.28000000000003</ele>
   </trkpt>
   <trkpt lat="41.576930000000004" lon="1.61955">
    <ele>302.16</ele>
   </trkpt>
   <trkpt lat="41.576950000000004" lon="1.61975">
    <ele>302.16</ele>
   </trkpt>
   <trkpt lat="41.57692" lon="1.6198800000000002">
    <ele>302.16</ele>
   </trkpt>
   <trkpt lat="41.576800000000006" lon="1.6201900000000002">
    <ele>302.11</ele>
   </trkpt>
   <trkpt lat="41.57652500204876" lon="1.6208700027826923">
    <ele>301.77000000000004</ele>
   </trkpt>
   <trkpt lat="41.57625" lon="1.62155">
    <ele>301.8</ele>
   </trkpt>
   <trkpt lat="41.57621" lon="1.62172">
    <ele>301.85</ele>
   </trkpt>
   <trkpt lat="41.576170000000005" lon="1.622">
    <ele>302.06000000000006</ele>
   </trkpt>
   <trkpt lat="41.576040000000006" lon="1.62247">
    <ele>302.71000000000004</ele>
   </trkpt>
   <trkpt lat="41.57598" lon="1.62247">
    <ele>302.83000000000004</ele>
   </trkpt>
   <trkpt lat="41.57593000000001" lon="1.62253">
    <ele>302.83000000000004</ele>
   </trkpt>
   <trkpt lat="41.57593000000001" lon="1.6226">
    <ele>302.65000000000003</ele>
   </trkpt>
   <trkpt lat="41.57596" lon="1.6226600000000002">
    <ele>302.65000000000003</ele>
   </trkpt>
   <trkpt lat="41.575750000000006" lon="1.62308">
    <ele>301.49</ele>
   </trkpt>
   <trkpt lat="41.575520000000004" lon="1.6236300000000001">
    <ele>300.98</ele>
   </trkpt>
   <trkpt lat="41.5754" lon="1.6238400000000002">
    <ele>301.04</ele>
   </trkpt>
   <trkpt lat="41.57486" lon="1.62461">
    <ele>299.96</ele>
   </trkpt>
   <trkpt lat="41.57441667186551" lon="1.6253833439190681">
    <ele>298.33000000000004</ele>
   </trkpt>
   <trkpt lat="41.57397333854929" lon="1.626156677222409">
    <ele>297.58</ele>
   </trkpt>
   <trkpt lat="41.573530000000005" lon="1.6269300000000002">
    <ele>297.03000000000003</ele>
   </trkpt>
   <trkpt lat="41.57340000000001" lon="1.62722">
    <ele>296.81</ele>
   </trkpt>
   <trkpt lat="41.573280000000004" lon="1.6276300000000001">
    <ele>296.81</ele>
   </trkpt>
   <trkpt lat="41.5732" lon="1.6280000000000001">
    <ele>296.15000000000003</ele>
   </trkpt>
   <trkpt lat="41.573150000000005" lon="1.6286900000000002">
    <ele>295.97</ele>
   </trkpt>
   <trkpt lat="41.57312" lon="1.6287">
    <ele>295.97</ele>
   </trkpt>
   <trkpt lat="41.57305" lon="1.62877">
    <ele>295.81</ele>
   </trkpt>
   <trkpt lat="41.57305" lon="1.6289000000000002">
    <ele>295.78999999999996</ele>
   </trkpt>
   <trkpt lat="41.57307" lon="1.62894">
    <ele>295.78999999999996</ele>
   </trkpt>
   <trkpt lat="41.573130000000006" lon="1.6289900000000002">
    <ele>295.78999999999996</ele>
   </trkpt>
   <trkpt lat="41.57314" lon="1.6293000000000002">
    <ele>295.92</ele>
   </trkpt>
   <trkpt lat="41.57314" lon="1.62928">
    <ele>295.90000000000003</ele>
   </trkpt>
   <trkpt lat="41.573170000000005" lon="1.6302800000000002">
    <ele>295.8</ele>
   </trkpt>
   <trkpt lat="41.573260000000005" lon="1.6311700000000002">
    <ele>295.35</ele>
   </trkpt>
   <trkpt lat="41.573240000000006" lon="1.63131">
    <ele>295.07</ele>
   </trkpt>
   <trkpt lat="41.573190000000004" lon="1.6313600000000001">
    <ele>295.07</ele>
   </trkpt>
   <trkpt lat="41.57318" lon="1.63145">
    <ele>295.07</ele>
   </trkpt>
   <trkpt lat="41.5732" lon="1.6315300000000001">
    <ele>294.97</ele>
   </trkpt>
   <trkpt lat="41.57323" lon="1.6315600000000001">
    <ele>294.97</ele>
   </trkpt>
   <trkpt lat="41.573240000000006" lon="1.63166">
    <ele>294.74</ele>
   </trkpt>
   <trkpt lat="41.57316" lon="1.6316400000000002">
    <ele>294.53000000000003</ele>
   </trkpt>
   <trkpt lat="41.573150000000005" lon="1.63189">
    <ele>293.87</ele>
   </trkpt>
   <trkpt lat="41.57307" lon="1.6324400000000001">
    <ele>291.3</ele>
   </trkpt>
   <trkpt lat="41.573" lon="1.6325900000000002">
    <ele>290.73</ele>
   </trkpt>
   <trkpt lat="41.57287" lon="1.63264">
    <ele>290.42</ele>
   </trkpt>
   <trkpt lat="41.57256" lon="1.63264">
    <ele>290.49</ele>
   </trkpt>
   <trkpt lat="41.57224" lon="1.6327800000000001">
    <ele>291.02</ele>
   </trkpt>
   <trkpt lat="41.57184" lon="1.6329000000000002">
    <ele>291.07000000000005</ele>
   </trkpt>
   <trkpt lat="41.57177" lon="1.6328600000000002">
    <ele>291.07000000000005</ele>
   </trkpt>
   <trkpt lat="41.57146" lon="1.6328200000000002">
    <ele>291.08</ele>
   </trkpt>
   <trkpt lat="41.57104" lon="1.6328">
    <ele>291.13</ele>
   </trkpt>
   <trkpt lat="41.570620000000005" lon="1.63277">
    <ele>290.72</ele>
   </trkpt>
   <trkpt lat="41.57039" lon="1.6327800000000001">
    <ele>290.77000000000004</ele>
   </trkpt>
   <trkpt lat="41.57018" lon="1.6328900000000002">
    <ele>290.97</ele>
   </trkpt>
   <trkpt lat="41.570100000000004" lon="1.63297">
    <ele>290.97</ele>
   </trkpt>
   <trkpt lat="41.569900000000004" lon="1.63324">
    <ele>291.33000000000004</ele>
   </trkpt>
   <trkpt lat="41.56971" lon="1.6335700000000002">
    <ele>291.34000000000003</ele>
   </trkpt>
   <trkpt lat="41.56928500335359" lon="1.6344450056804034">
    <ele>291.24</ele>
   </trkpt>
   <trkpt lat="41.56886" lon="1.63532">
    <ele>291.92</ele>
   </trkpt>
   <trkpt lat="41.56879" lon="1.63542">
    <ele>292.00000000000006</ele>
   </trkpt>
   <trkpt lat="41.56877" lon="1.63545">
    <ele>292.03000000000003</ele>
   </trkpt>
   <trkpt lat="41.56871" lon="1.6355600000000001">
    <ele>292.12000000000006</ele>
   </trkpt>
   <trkpt lat="41.56877" lon="1.63565">
    <ele>292.17</ele>
   </trkpt>
   <trkpt lat="41.569190000000006" lon="1.6359800000000002">
    <ele>292.03000000000003</ele>
   </trkpt>
   <trkpt lat="41.56938" lon="1.63552">
    <ele>291.54</ele>
   </trkpt>
   <trkpt lat="41.569370000000006" lon="1.63552">
    <ele>291.54</ele>
   </trkpt>
   <trkpt lat="41.56944" lon="1.63538">
    <ele>291.54</ele>
   </trkpt>
   <trkpt lat="41.569700000000005" lon="1.6348900000000002">
    <ele>291.40000000000003</ele>
   </trkpt>
   <trkpt lat="41.57014000154606" lon="1.6343050038999818">
    <ele>291.51000000000005</ele>
   </trkpt>
   <trkpt lat="41.57058000000001" lon="1.63372">
    <ele>291.59000000000003</ele>
   </trkpt>
   <trkpt lat="41.57079" lon="1.6335300000000001">
    <ele>291.69</ele>
   </trkpt>
   <trkpt lat="41.57099" lon="1.63342">
    <ele>291.66</ele>
   </trkpt>
   <trkpt lat="41.57117" lon="1.63338">
    <ele>291.42</ele>
   </trkpt>
   <trkpt lat="41.57135" lon="1.6333700000000002">
    <ele>290.61</ele>
   </trkpt>
   <trkpt lat="41.57144" lon="1.6335100000000002">
    <ele>290.97</ele>
   </trkpt>
   <trkpt lat="41.57152000000001" lon="1.6337300000000001">
    <ele>292.09000000000003</ele>
   </trkpt>
   <trkpt lat="41.57159" lon="1.6338000000000001">
    <ele>292.84999999999997</ele>
   </trkpt>
   <trkpt lat="41.57164" lon="1.6338100000000002">
    <ele>294.43</ele>
   </trkpt>
   <trkpt lat="41.57168" lon="1.63392">
    <ele>294.43</ele>
   </trkpt>
   <trkpt lat="41.57168" lon="1.63403">
    <ele>295.13</ele>
   </trkpt>
   <trkpt lat="41.57188" lon="1.63447">
    <ele>301.45000000000005</ele>
   </trkpt>
   <trkpt lat="41.57195" lon="1.6347500000000001">
    <ele>301.77000000000004</ele>
   </trkpt>
   <trkpt lat="41.57195" lon="1.6347600000000002">
    <ele>301.83000000000004</ele>
   </trkpt>
   <trkpt lat="41.57199000000001" lon="1.6347200000000002">
    <ele>301.83000000000004</ele>
   </trkpt>
   <trkpt lat="41.572030000000005" lon="1.6347">
    <ele>302.27000000000004</ele>
   </trkpt>
   <trkpt lat="41.572210000000005" lon="1.6347">
    <ele>302.70000000000005</ele>
   </trkpt>
   <trkpt lat="41.57233" lon="1.63464">
    <ele>302.8</ele>
   </trkpt>
   <trkpt lat="41.57244" lon="1.6343200000000002">
    <ele>302.04</ele>
   </trkpt>
   <trkpt lat="41.572480000000006" lon="1.63426">
    <ele>301.75</ele>
   </trkpt>
   <trkpt lat="41.572750000000006" lon="1.6340400000000002">
    <ele>301.24</ele>
   </trkpt>
   <trkpt lat="41.573255000752894" lon="1.6335950035715199">
    <ele>300.50000000000006</ele>
   </trkpt>
   <trkpt lat="41.57376" lon="1.63315">
    <ele>300.99</ele>
   </trkpt>
   <trkpt lat="41.57383" lon="1.6332000000000002">
    <ele>301.22</ele>
   </trkpt>
   <trkpt lat="41.57388" lon="1.63318">
    <ele>301.22</ele>
   </trkpt>
   <trkpt lat="41.573930000000004" lon="1.63335">
    <ele>301.23</ele>
   </trkpt>
   <trkpt lat="41.574070000000006" lon="1.6333600000000001">
    <ele>302.32000000000005</ele>
   </trkpt>
   <trkpt lat="41.57421" lon="1.6333300000000002">
    <ele>303.21000000000004</ele>
   </trkpt>
   <trkpt lat="41.57441" lon="1.6333400000000002">
    <ele>305.16</ele>
   </trkpt>
   <trkpt lat="41.574740000000006" lon="1.63321">
    <ele>309.74</ele>
   </trkpt>
   <trkpt lat="41.574740000000006" lon="1.6332000000000002">
    <ele>309.81</ele>
   </trkpt>
   <trkpt lat="41.57477" lon="1.6333700000000002">
    <ele>310.56</ele>
   </trkpt>
   <trkpt lat="41.575" lon="1.63372">
    <ele>311.22</ele>
   </trkpt>
   <trkpt lat="41.575250000000004" lon="1.6339400000000002">
    <ele>311.28</ele>
   </trkpt>
   <trkpt lat="41.575810000000004" lon="1.6343200000000002">
    <ele>312.42</ele>
   </trkpt>
   <trkpt lat="41.575860000000006" lon="1.6343200000000002">
    <ele>312.42</ele>
   </trkpt>
   <trkpt lat="41.57587" lon="1.6343200000000002">
    <ele>312.43</ele>
   </trkpt>
   <trkpt lat="41.57591" lon="1.6342700000000001">
    <ele>312.43</ele>
   </trkpt>
   <trkpt lat="41.57614" lon="1.63355">
    <ele>312.62</ele>
   </trkpt>
   <trkpt lat="41.576330000000006" lon="1.6330500000000001">
    <ele>312.8</ele>
   </trkpt>
   <trkpt lat="41.5767" lon="1.63237">
    <ele>313.02000000000004</ele>
   </trkpt>
   <trkpt lat="41.57701" lon="1.63179">
    <ele>313.49000000000007</ele>
   </trkpt>
   <trkpt lat="41.577040000000004" lon="1.63185">
    <ele>313.53000000000003</ele>
   </trkpt>
   <trkpt lat="41.577200000000005" lon="1.6330000000000002">
    <ele>314.12</ele>
   </trkpt>
   <trkpt lat="41.57726" lon="1.63325">
    <ele>314.05000000000007</ele>
   </trkpt>
   <trkpt lat="41.57748" lon="1.63372">
    <ele>313.59000000000003</ele>
   </trkpt>
   <trkpt lat="41.577560000000005" lon="1.63365">
    <ele>313.61</ele>
   </trkpt>
   <trkpt lat="41.57768" lon="1.6338700000000002">
    <ele>314.25</ele>
   </trkpt>
   <trkpt lat="41.57768" lon="1.63386">
    <ele>314.21999999999997</ele>
   </trkpt>
   <trkpt lat="41.57777" lon="1.6340400000000002">
    <ele>315.18</ele>
   </trkpt>
   <trkpt lat="41.57791" lon="1.6342400000000001">
    <ele>316.09000000000003</ele>
   </trkpt>
   <trkpt lat="41.578300000000006" lon="1.6344900000000002">
    <ele>317.35</ele>
   </trkpt>
   <trkpt lat="41.57873" lon="1.6347300000000002">
    <ele>317.85</ele>
   </trkpt>
   <trkpt lat="41.57898" lon="1.6347600000000002">
    <ele>317.93000000000006</ele>
   </trkpt>
   <trkpt lat="41.579240000000006" lon="1.6346">
    <ele>318.39</ele>
   </trkpt>
   <trkpt lat="41.57952" lon="1.6344500000000002">
    <ele>319.1</ele>
   </trkpt>
   <trkpt lat="41.58016000000001" lon="1.63396">
    <ele>321.72</ele>
   </trkpt>
   <trkpt lat="41.580330000000004" lon="1.6338800000000002">
    <ele>322.07</ele>
   </trkpt>
   <trkpt lat="41.580600000000004" lon="1.6338100000000002">
    <ele>322.45</ele>
   </trkpt>
   <trkpt lat="41.580740000000006" lon="1.6338300000000001">
    <ele>322.72</ele>
   </trkpt>
   <trkpt lat="41.581120000000006" lon="1.63392">
    <ele>323.05</ele>
   </trkpt>
   <trkpt lat="41.58131" lon="1.6339100000000002">
    <ele>323.09000000000003</ele>
   </trkpt>
   <trkpt lat="41.58140751358849" lon="1.6328875046296771">
    <ele>325.45</ele>
   </trkpt>
   <trkpt lat="41.581505018118136" lon="1.6318650061714348">
    <ele>327.75000000000006</ele>
   </trkpt>
   <trkpt lat="41.581602513588905" lon="1.6308425046255404">
    <ele>329.04</ele>
   </trkpt>
   <trkpt lat="41.581700000000005" lon="1.62982">
    <ele>330.24</ele>
   </trkpt>
   <trkpt lat="41.58184000000001" lon="1.6298500000000002">
    <ele>330.74</ele>
   </trkpt>
   <trkpt lat="41.581880000000005" lon="1.62986">
    <ele>330.87000000000006</ele>
   </trkpt>
   <trkpt lat="41.581700000000005" lon="1.62982">
    <ele>330.24</ele>
   </trkpt>
   <trkpt lat="41.581700000000005" lon="1.62975">
    <ele>330.56</ele>
   </trkpt>
   <trkpt lat="41.5823250001704" lon="1.6298599989560922">
    <ele>332.62</ele>
   </trkpt>
   <trkpt lat="41.582950000000004" lon="1.6299700000000001">
    <ele>335.26</ele>
   </trkpt>
   <trkpt lat="41.58306" lon="1.6298500000000002">
    <ele>335.45000000000005</ele>
   </trkpt>
   <trkpt lat="41.58314" lon="1.62959">
    <ele>335.88</ele>
   </trkpt>
   <trkpt lat="41.583220000000004" lon="1.6292900000000001">
    <ele>336.36</ele>
   </trkpt>
   <trkpt lat="41.58343000453484" lon="1.6282700031837607">
    <ele>337.41</ele>
   </trkpt>
   <trkpt lat="41.58364" lon="1.62725">
    <ele>337.52000000000004</ele>
   </trkpt>
   <trkpt lat="41.58363000000001" lon="1.62725">
    <ele>337.51000000000005</ele>
   </trkpt>
   <trkpt lat="41.58415000010789" lon="1.6273699990441035">
    <ele>337.76</ele>
   </trkpt>
   <trkpt lat="41.58467" lon="1.62749">
    <ele>337.99</ele>
   </trkpt>
   <trkpt lat="41.5848" lon="1.6275400000000002">
    <ele>338.21</ele>
   </trkpt>
   <trkpt lat="41.584810000000004" lon="1.6275400000000002">
    <ele>338.22</ele>
   </trkpt>
   <trkpt lat="41.584810000000004" lon="1.62765">
    <ele>338.11</ele>
   </trkpt>
   <trkpt lat="41.58485" lon="1.6277400000000002">
    <ele>337.86000000000007</ele>
   </trkpt>
   <trkpt lat="41.58489" lon="1.6277800000000002">
    <ele>337.86000000000007</ele>
   </trkpt>
   <trkpt lat="41.58489" lon="1.62779">
    <ele>337.86000000000007</ele>
   </trkpt>
   <trkpt lat="41.58498" lon="1.6278000000000001">
    <ele>337.86000000000007</ele>
   </trkpt>
   <trkpt lat="41.585060000000006" lon="1.6277300000000001">
    <ele>338.01000000000005</ele>
   </trkpt>
   <trkpt lat="41.585210000000004" lon="1.6276800000000002">
    <ele>338.40000000000003</ele>
   </trkpt>
   <trkpt lat="41.585210000000004" lon="1.6276700000000002">
    <ele>338.40000000000003</ele>
   </trkpt>
   <trkpt lat="41.585100000000004" lon="1.6275700000000002">
    <ele>338.16</ele>
   </trkpt>
   <trkpt lat="41.58507" lon="1.62749">
    <ele>338.21</ele>
   </trkpt>
   <trkpt lat="41.585100000000004" lon="1.6275700000000002">
    <ele>338.16</ele>
   </trkpt>
   <trkpt lat="41.585210000000004" lon="1.6276800000000002">
    <ele>338.4200000000001</ele>
   </trkpt>
   <trkpt lat="41.58531000000001" lon="1.62772">
    <ele>338.66</ele>
   </trkpt>
   <trkpt lat="41.58534" lon="1.62762">
    <ele>338.56</ele>
   </trkpt>
   <trkpt lat="41.585260000000005" lon="1.6275700000000002">
    <ele>338.47</ele>
   </trkpt>
   <trkpt lat="41.5852" lon="1.62749">
    <ele>338.41</ele>
   </trkpt>
   <trkpt lat="41.585280000000004" lon="1.6272700000000002">
    <ele>338.44</ele>
   </trkpt>
   <trkpt lat="41.58547" lon="1.6267500000000001">
    <ele>338.90000000000003</ele>
   </trkpt>
   <trkpt lat="41.58572" lon="1.6260800000000002">
    <ele>339.63000000000005</ele>
   </trkpt>
   <trkpt lat="41.58565" lon="1.62627">
    <ele>339.38</ele>
   </trkpt>
   <trkpt lat="41.585660000000004" lon="1.6262500000000002">
    <ele>339.41</ele>
   </trkpt>
   <trkpt lat="41.58563" lon="1.6263100000000001">
    <ele>339.33000000000004</ele>
   </trkpt>
   <trkpt lat="41.58574" lon="1.6260200000000002">
    <ele>339.7</ele>
   </trkpt>
  </trkseg>
 </trk>
</gpx>
