<?xml version="1.0" encoding="UTF-8"?>
<gpx creator="StravaGPX" version="1.1" xmlns="http://www.topografix.com/GPX/1/1" xmlns:xsi="http://www.w3.org/2001/XMLSchema-instance" xsi:schemaLocation="http://www.topografix.com/GPX/1/1 http://www.topografix.com/GPX/1/1/gpx.xsd">
 <metadata>
  <name>Ruta MM Igualada</name>
  <desc>TFG</desc>
  <author>
   <name>Martí Claramunt</name>
   <link href="https://www.strava.com/athletes/63663471"/>
  </author>
  <copyright author="OpenStreetMap contributors">
   <year>2020</year>
   <license>https://www.openstreetmap.org/copyright</license>
  </copyright>
  <link href="https://www.strava.com/routes/3535025797968895038"/>
 </metadata>
 <trk>
  <name>Ruta MM Igualada</name>
  <desc>TFG</desc>
  <link href="https://www.strava.com/routes/3535025797968895038"/>
  <type>running</type>
  <trkseg>
   <trkpt lat="41.58637" lon="1.62603">
    <ele>341.2</ele>
   </trkpt>
   <trkpt lat="41.58663000000001" lon="1.6254000000000002">
    <ele>341.97</ele>
   </trkpt>
   <trkpt lat="41.586650000000006" lon="1.6253300000000002">
    <ele>341.97</ele>
   </trkpt>
   <trkpt lat="41.58662" lon="1.6246200000000002">
    <ele>342.46000000000004</ele>
   </trkpt>
   <trkpt lat="41.58632" lon="1.6244200000000002">
    <ele>341.59</ele>
   </trkpt>
   <trkpt lat="41.586400000000005" lon="1.6243100000000001">
    <ele>341.59</ele>
   </trkpt>
   <trkpt lat="41.58678000866137" lon="1.6233100117802857">
    <ele>342.6</ele>
   </trkpt>
   <trkpt lat="41.58716000865805" lon="1.622310011789202">
    <ele>344.16</ele>
   </trkpt>
   <trkpt lat="41.587540000000004" lon="1.62131">
    <ele>346.73</ele>
   </trkpt>
   <trkpt lat="41.587680000000006" lon="1.6212000000000002">
    <ele>348.1</ele>
   </trkpt>
   <trkpt lat="41.58776" lon="1.6211700000000002">
    <ele>348.1</ele>
   </trkpt>
   <trkpt lat="41.58784" lon="1.6210700000000002">
    <ele>348.48</ele>
   </trkpt>
   <trkpt lat="41.587900000000005" lon="1.6208900000000002">
    <ele>349.2</ele>
   </trkpt>
   <trkpt lat="41.58782" lon="1.6208200000000001">
    <ele>349.1</ele>
   </trkpt>
   <trkpt lat="41.58778" lon="1.6207500000000001">
    <ele>348.86</ele>
   </trkpt>
   <trkpt lat="41.5878" lon="1.62054">
    <ele>348.55</ele>
   </trkpt>
   <trkpt lat="41.58775000000001" lon="1.6205100000000001">
    <ele>348.55</ele>
   </trkpt>
   <trkpt lat="41.58787" lon="1.6201900000000002">
    <ele>348.99</ele>
   </trkpt>
   <trkpt lat="41.588010000000004" lon="1.6200500000000002">
    <ele>349.78000000000003</ele>
   </trkpt>
   <trkpt lat="41.588260002020036" lon="1.6193900022050511">
    <ele>352.84000000000003</ele>
   </trkpt>
   <trkpt lat="41.58851000000001" lon="1.6187300000000002">
    <ele>354.19</ele>
   </trkpt>
   <trkpt lat="41.58858" lon="1.6186200000000002">
    <ele>354.40999999999997</ele>
   </trkpt>
   <trkpt lat="41.588620000000006" lon="1.61864">
    <ele>354.40999999999997</ele>
   </trkpt>
   <trkpt lat="41.58863" lon="1.6185200000000002">
    <ele>354.63000000000005</ele>
   </trkpt>
   <trkpt lat="41.588923339167934" lon="1.6177000074282508">
    <ele>355.77000000000004</ele>
   </trkpt>
   <trkpt lat="41.58921667250967" lon="1.6168800074048704">
    <ele>356.21000000000004</ele>
   </trkpt>
   <trkpt lat="41.589510000000004" lon="1.61606">
    <ele>356.32</ele>
   </trkpt>
   <trkpt lat="41.58939" lon="1.6160100000000002">
    <ele>356.64</ele>
   </trkpt>
   <trkpt lat="41.589310000000005" lon="1.6159400000000002">
    <ele>356.97</ele>
   </trkpt>
   <trkpt lat="41.58939" lon="1.61569">
    <ele>357.07000000000005</ele>
   </trkpt>
   <trkpt lat="41.589380000000006" lon="1.61555">
    <ele>357.07000000000005</ele>
   </trkpt>
   <trkpt lat="41.58935" lon="1.6154700000000002">
    <ele>357.04</ele>
   </trkpt>
   <trkpt lat="41.589380000000006" lon="1.61539">
    <ele>357.1</ele>
   </trkpt>
   <trkpt lat="41.58941" lon="1.6153600000000001">
    <ele>357.1</ele>
   </trkpt>
   <trkpt lat="41.58945000000001" lon="1.61535">
    <ele>357.1</ele>
   </trkpt>
   <trkpt lat="41.589490000000005" lon="1.6153600000000001">
    <ele>357.16</ele>
   </trkpt>
   <trkpt lat="41.589740000000006" lon="1.61484">
    <ele>357.07000000000005</ele>
   </trkpt>
   <trkpt lat="41.589850000000006" lon="1.61416">
    <ele>356.42</ele>
   </trkpt>
   <trkpt lat="41.590100002178765" lon="1.6134600025543837">
    <ele>356.1</ele>
   </trkpt>
   <trkpt lat="41.59035" lon="1.6127600000000002">
    <ele>356.18000000000006</ele>
   </trkpt>
   <trkpt lat="41.590270000000004" lon="1.6126500000000001">
    <ele>356.18000000000006</ele>
   </trkpt>
   <trkpt lat="41.59035" lon="1.6126900000000002">
    <ele>355.94000000000005</ele>
   </trkpt>
   <trkpt lat="41.59049" lon="1.61251">
    <ele>355.45000000000005</ele>
   </trkpt>
   <trkpt lat="41.590770000000006" lon="1.6117500000000002">
    <ele>354.53000000000003</ele>
   </trkpt>
   <trkpt lat="41.590960001360564" lon="1.6112050013926533">
    <ele>354.1</ele>
   </trkpt>
   <trkpt lat="41.591150000000006" lon="1.6106600000000002">
    <ele>353.92</ele>
   </trkpt>
   <trkpt lat="41.59127" lon="1.6098500000000002">
    <ele>352.02000000000004</ele>
   </trkpt>
   <trkpt lat="41.59129" lon="1.6093700000000002">
    <ele>350.48</ele>
   </trkpt>
   <trkpt lat="41.591280000000005" lon="1.60888">
    <ele>348.29</ele>
   </trkpt>
   <trkpt lat="41.591240000000006" lon="1.6085600000000002">
    <ele>347.48</ele>
   </trkpt>
   <trkpt lat="41.591170000000005" lon="1.60854">
    <ele>347.52000000000004</ele>
   </trkpt>
   <trkpt lat="41.591260000000005" lon="1.6083100000000001">
    <ele>346.82</ele>
   </trkpt>
   <trkpt lat="41.591190000000005" lon="1.6078800000000002">
    <ele>344.28000000000003</ele>
   </trkpt>
   <trkpt lat="41.591240000000006" lon="1.60759">
    <ele>343.24000000000007</ele>
   </trkpt>
   <trkpt lat="41.591060000000006" lon="1.6064900000000002">
    <ele>342.91</ele>
   </trkpt>
   <trkpt lat="41.590830000000004" lon="1.6053300000000001">
    <ele>346.14</ele>
   </trkpt>
   <trkpt lat="41.590685004246474" lon="1.6043399977779012">
    <ele>346.57000000000005</ele>
   </trkpt>
   <trkpt lat="41.590540000000004" lon="1.60335">
    <ele>344.55</ele>
   </trkpt>
   <trkpt lat="41.59048000000001" lon="1.6029000000000002">
    <ele>343.77000000000004</ele>
   </trkpt>
   <trkpt lat="41.590410000000006" lon="1.6026900000000002">
    <ele>343.2</ele>
   </trkpt>
   <trkpt lat="41.590320000000006" lon="1.6025600000000002">
    <ele>343.2</ele>
   </trkpt>
   <trkpt lat="41.590230000000005" lon="1.6024800000000001">
    <ele>342.68</ele>
   </trkpt>
   <trkpt lat="41.590090000000004" lon="1.6024">
    <ele>342.68</ele>
   </trkpt>
   <trkpt lat="41.589960000000005" lon="1.60237">
    <ele>342.68</ele>
   </trkpt>
   <trkpt lat="41.589830000000006" lon="1.60237">
    <ele>342.68</ele>
   </trkpt>
   <trkpt lat="41.58954000000001" lon="1.6026300000000002">
    <ele>340.71</ele>
   </trkpt>
   <trkpt lat="41.5889950019466" lon="1.6033050057322011">
    <ele>339.57000000000005</ele>
   </trkpt>
   <trkpt lat="41.58845" lon="1.6039800000000002">
    <ele>338.15</ele>
   </trkpt>
   <trkpt lat="41.587950000000006" lon="1.6045500000000001">
    <ele>338.06</ele>
   </trkpt>
   <trkpt lat="41.58793" lon="1.6044600000000002">
    <ele>338.04</ele>
   </trkpt>
   <trkpt lat="41.587270000000004" lon="1.6047000000000002">
    <ele>336.56</ele>
   </trkpt>
   <trkpt lat="41.586646667171756" lon="1.6049333378262647">
    <ele>334.97</ele>
   </trkpt>
   <trkpt lat="41.58602333387175" lon="1.60516667114706">
    <ele>333.84000000000003</ele>
   </trkpt>
   <trkpt lat="41.5854" lon="1.6054000000000002">
    <ele>332.99</ele>
   </trkpt>
   <trkpt lat="41.585170000000005" lon="1.60542">
    <ele>332.04</ele>
   </trkpt>
   <trkpt lat="41.584720000000004" lon="1.6053600000000001">
    <ele>330.15000000000003</ele>
   </trkpt>
   <trkpt lat="41.584590000000006" lon="1.60532">
    <ele>329.65000000000003</ele>
   </trkpt>
   <trkpt lat="41.58446" lon="1.6052400000000002">
    <ele>328.78000000000003</ele>
   </trkpt>
   <trkpt lat="41.584390000000006" lon="1.6051600000000001">
    <ele>328.78000000000003</ele>
   </trkpt>
   <trkpt lat="41.58410000000001" lon="1.6047200000000001">
    <ele>324.96000000000004</ele>
   </trkpt>
   <trkpt lat="41.58393" lon="1.6046600000000002">
    <ele>324.21000000000004</ele>
   </trkpt>
   <trkpt lat="41.5839" lon="1.6046600000000002">
    <ele>323.98</ele>
   </trkpt>
   <trkpt lat="41.583780000000004" lon="1.6046500000000001">
    <ele>322.99</ele>
   </trkpt>
   <trkpt lat="41.58379" lon="1.6043600000000002">
    <ele>323.75000000000006</ele>
   </trkpt>
   <trkpt lat="41.58384" lon="1.60437">
    <ele>323.75000000000006</ele>
   </trkpt>
   <trkpt lat="41.583850000000005" lon="1.6043100000000001">
    <ele>323.90000000000003</ele>
   </trkpt>
   <trkpt lat="41.58391000195151" lon="1.6036400005475688">
    <ele>327.79</ele>
   </trkpt>
   <trkpt lat="41.58397" lon="1.6029700000000002">
    <ele>329.82</ele>
   </trkpt>
   <trkpt lat="41.584140003545976" lon="1.6020650023950822">
    <ele>330.92</ele>
   </trkpt>
   <trkpt lat="41.58431" lon="1.6011600000000001">
    <ele>330.99</ele>
   </trkpt>
   <trkpt lat="41.584490002594286" lon="1.600385002194198">
    <ele>332.04</ele>
   </trkpt>
   <trkpt lat="41.58467" lon="1.5996100000000002">
    <ele>333.9800000000001</ele>
   </trkpt>
   <trkpt lat="41.584770000000006" lon="1.59867">
    <ele>335.71</ele>
   </trkpt>
   <trkpt lat="41.58485802158251" lon="1.5975540060903417">
    <ele>336.90000000000003</ele>
   </trkpt>
   <trkpt lat="41.5849460323736" lon="1.5964380091381414">
    <ele>338.13000000000005</ele>
   </trkpt>
   <trkpt lat="41.58503403237319" lon="1.595322009143754">
    <ele>339.56</ele>
   </trkpt>
   <trkpt lat="41.585122021581235" lon="1.5942060061075354">
    <ele>340.03000000000003</ele>
   </trkpt>
   <trkpt lat="41.585210000000004" lon="1.5930900000000001">
    <ele>340.42</ele>
   </trkpt>
   <trkpt lat="41.58534" lon="1.59302">
    <ele>340.76</ele>
   </trkpt>
   <trkpt lat="41.585420000000006" lon="1.59294">
    <ele>340.88</ele>
   </trkpt>
   <trkpt lat="41.58545" lon="1.5928600000000002">
    <ele>340.88</ele>
   </trkpt>
   <trkpt lat="41.585350000000005" lon="1.59285">
    <ele>340.73</ele>
   </trkpt>
   <trkpt lat="41.58534" lon="1.59271">
    <ele>340.66</ele>
   </trkpt>
   <trkpt lat="41.585260000000005" lon="1.5926300000000002">
    <ele>340.66</ele>
   </trkpt>
   <trkpt lat="41.585480000000004" lon="1.5916000000000001">
    <ele>342.1</ele>
   </trkpt>
   <trkpt lat="41.585653338925404" lon="1.5907966709783727">
    <ele>343.18</ele>
   </trkpt>
   <trkpt lat="41.5858266722591" lon="1.589993337643467">
    <ele>344.39000000000004</ele>
   </trkpt>
   <trkpt lat="41.586000000000006" lon="1.58919">
    <ele>345.90000000000003</ele>
   </trkpt>
   <trkpt lat="41.58603" lon="1.5892100000000002">
    <ele>345.91</ele>
   </trkpt>
   <trkpt lat="41.585980000000006" lon="1.58945">
    <ele>345.53</ele>
   </trkpt>
   <trkpt lat="41.5857566757679" lon="1.5904733402871758">
    <ele>343.40000000000003</ele>
   </trkpt>
   <trkpt lat="41.58553334246191" lon="1.591496673495079">
    <ele>341.71</ele>
   </trkpt>
   <trkpt lat="41.58531000000001" lon="1.5925200000000002">
    <ele>341.01000000000005</ele>
   </trkpt>
   <trkpt lat="41.5854" lon="1.59261">
    <ele>340.98</ele>
   </trkpt>
   <trkpt lat="41.58545" lon="1.5927900000000002">
    <ele>340.88</ele>
   </trkpt>
   <trkpt lat="41.58545" lon="1.5928600000000002">
    <ele>340.88</ele>
   </trkpt>
   <trkpt lat="41.585350000000005" lon="1.59285">
    <ele>340.73</ele>
   </trkpt>
   <trkpt lat="41.58534" lon="1.59271">
    <ele>340.73</ele>
   </trkpt>
   <trkpt lat="41.585260000000005" lon="1.5926300000000002">
    <ele>340.66</ele>
   </trkpt>
   <trkpt lat="41.585190000000004" lon="1.5926200000000001">
    <ele>340.34000000000003</ele>
   </trkpt>
   <trkpt lat="41.58514" lon="1.5926300000000002">
    <ele>340.34000000000003</ele>
   </trkpt>
   <trkpt lat="41.585100000000004" lon="1.59268">
    <ele>340.08000000000004</ele>
   </trkpt>
   <trkpt lat="41.58507" lon="1.59285">
    <ele>339.97</ele>
   </trkpt>
   <trkpt lat="41.58475000000001" lon="1.5927700000000002">
    <ele>338.09</ele>
   </trkpt>
   <trkpt lat="41.584480000000006" lon="1.59271">
    <ele>336.87</ele>
   </trkpt>
   <trkpt lat="41.58446" lon="1.59294">
    <ele>336.58000000000004</ele>
   </trkpt>
   <trkpt lat="41.58436835767326" lon="1.594000007515294">
    <ele>335.23</ele>
   </trkpt>
   <trkpt lat="41.58427670561077" lon="1.5950600120215221">
    <ele>334.35</ele>
   </trkpt>
   <trkpt lat="41.58418504381256" lon="1.596120013518383">
    <ele>333.44</ele>
   </trkpt>
   <trkpt lat="41.58409337227872" lon="1.5971800120055757">
    <ele>332.62</ele>
   </trkpt>
   <trkpt lat="41.5840016910093" lon="1.598240007482798">
    <ele>331.29</ele>
   </trkpt>
   <trkpt lat="41.58391" lon="1.5993000000000002">
    <ele>329.39</ele>
   </trkpt>
   <trkpt lat="41.5839" lon="1.5993000000000002">
    <ele>329.38</ele>
   </trkpt>
   <trkpt lat="41.5846" lon="1.59955">
    <ele>334.32</ele>
   </trkpt>
   <trkpt lat="41.584680000000006" lon="1.59956">
    <ele>334.39</ele>
   </trkpt>
   <trkpt lat="41.58449500271143" lon="1.6003600025571159">
    <ele>332.04</ele>
   </trkpt>
   <trkpt lat="41.58431" lon="1.6011600000000001">
    <ele>330.99</ele>
   </trkpt>
   <trkpt lat="41.58414000355063" lon="1.6020650023703047">
    <ele>330.92</ele>
   </trkpt>
   <trkpt lat="41.58397" lon="1.6029700000000002">
    <ele>329.82</ele>
   </trkpt>
   <trkpt lat="41.58391000193807" lon="1.603640000697586">
    <ele>327.79</ele>
   </trkpt>
   <trkpt lat="41.583850000000005" lon="1.6043100000000001">
    <ele>323.90000000000003</ele>
   </trkpt>
   <trkpt lat="41.58384" lon="1.60437">
    <ele>323.75000000000006</ele>
   </trkpt>
   <trkpt lat="41.58379" lon="1.6043600000000002">
    <ele>323.75000000000006</ele>
   </trkpt>
   <trkpt lat="41.583780000000004" lon="1.6046500000000001">
    <ele>322.99</ele>
   </trkpt>
   <trkpt lat="41.583760000000005" lon="1.6047600000000002">
    <ele>322.99</ele>
   </trkpt>
   <trkpt lat="41.58351500218812" lon="1.6054650025747201">
    <ele>317.63</ele>
   </trkpt>
   <trkpt lat="41.583270000000006" lon="1.60617">
    <ele>315.62</ele>
   </trkpt>
   <trkpt lat="41.58315" lon="1.60637">
    <ele>315.93000000000006</ele>
   </trkpt>
   <trkpt lat="41.583020000000005" lon="1.60651">
    <ele>316.6</ele>
   </trkpt>
   <trkpt lat="41.58297" lon="1.6067300000000002">
    <ele>319.48</ele>
   </trkpt>
   <trkpt lat="41.58297" lon="1.6068300000000002">
    <ele>319.23</ele>
   </trkpt>
   <trkpt lat="41.582910000000005" lon="1.6069300000000002">
    <ele>318.04</ele>
   </trkpt>
   <trkpt lat="41.5833" lon="1.60738">
    <ele>320.27</ele>
   </trkpt>
   <trkpt lat="41.583600000000004" lon="1.60786">
    <ele>323.51</ele>
   </trkpt>
   <trkpt lat="41.58372000000001" lon="1.6081">
    <ele>326.11</ele>
   </trkpt>
   <trkpt lat="41.58382" lon="1.6083500000000002">
    <ele>326.84000000000003</ele>
   </trkpt>
   <trkpt lat="41.5839400014763" lon="1.608944998609296">
    <ele>328.79</ele>
   </trkpt>
   <trkpt lat="41.58406" lon="1.6095400000000002">
    <ele>330.18</ele>
   </trkpt>
   <trkpt lat="41.58408" lon="1.6102">
    <ele>331.19000000000005</ele>
   </trkpt>
   <trkpt lat="41.584030000000006" lon="1.6105600000000002">
    <ele>331.66</ele>
   </trkpt>
   <trkpt lat="41.583920001601285" lon="1.6111750012563602">
    <ele>331.84000000000003</ele>
   </trkpt>
   <trkpt lat="41.58381000000001" lon="1.61179">
    <ele>332.3</ele>
   </trkpt>
   <trkpt lat="41.58363000000001" lon="1.6123600000000002">
    <ele>331.51000000000005</ele>
   </trkpt>
   <trkpt lat="41.58366" lon="1.61237">
    <ele>331.37000000000006</ele>
   </trkpt>
   <trkpt lat="41.583380009733624" lon="1.6132350112250367">
    <ele>330.17</ele>
   </trkpt>
   <trkpt lat="41.58310001298401" lon="1.6141000149484215">
    <ele>329.19000000000005</ele>
   </trkpt>
   <trkpt lat="41.582820009751295" lon="1.6149650111701195">
    <ele>329.01</ele>
   </trkpt>
   <trkpt lat="41.58254" lon="1.61583">
    <ele>328.46000000000004</ele>
   </trkpt>
   <trkpt lat="41.582530000000006" lon="1.61582">
    <ele>328.46000000000004</ele>
   </trkpt>
   <trkpt lat="41.58252" lon="1.6158400000000002">
    <ele>328.46000000000004</ele>
   </trkpt>
   <trkpt lat="41.582440000000005" lon="1.61609">
    <ele>328.08000000000004</ele>
   </trkpt>
   <trkpt lat="41.582480000000004" lon="1.6161">
    <ele>328.08000000000004</ele>
   </trkpt>
   <trkpt lat="41.58222000000001" lon="1.61705">
    <ele>325.94</ele>
   </trkpt>
   <trkpt lat="41.582280000000004" lon="1.6170700000000002">
    <ele>326.0</ele>
   </trkpt>
   <trkpt lat="41.581955588994184" lon="1.6180522616978397">
    <ele>324.45</ele>
   </trkpt>
   <trkpt lat="41.58163116962851" lon="1.619034513526216">
    <ele>323.35</ele>
   </trkpt>
   <trkpt lat="41.581306741903155" lon="1.6200167554850866">
    <ele>322.43000000000006</ele>
   </trkpt>
   <trkpt lat="41.5809823058183" lon="1.6209989875744086">
    <ele>321.35</ele>
   </trkpt>
   <trkpt lat="41.58065786137413" lon="1.62198120979414">
    <ele>319.97</ele>
   </trkpt>
   <trkpt lat="41.58033340857082" lon="1.6229634221442377">
    <ele>318.83</ele>
   </trkpt>
   <trkpt lat="41.58000894740853" lon="1.6239456246246595">
    <ele>317.53000000000003</ele>
   </trkpt>
   <trkpt lat="41.579684477887476" lon="1.6249278172353627">
    <ele>316.75</ele>
   </trkpt>
   <trkpt lat="41.57936" lon="1.6259100000000002">
    <ele>316.59000000000003</ele>
   </trkpt>
   <trkpt lat="41.57901667671732" lon="1.6269866780935016">
    <ele>316.13</ele>
   </trkpt>
   <trkpt lat="41.578673343390555" lon="1.6280633447393718">
    <ele>314.93000000000006</ele>
   </trkpt>
   <trkpt lat="41.57833" lon="1.62914">
    <ele>314.68</ele>
   </trkpt>
   <trkpt lat="41.577940000000005" lon="1.6290700000000002">
    <ele>313.84</ele>
   </trkpt>
   <trkpt lat="41.57732000001436" lon="1.6290449997604775">
    <ele>311.27000000000004</ele>
   </trkpt>
   <trkpt lat="41.5767" lon="1.6290200000000001">
    <ele>309.67</ele>
   </trkpt>
   <trkpt lat="41.576570000000004" lon="1.62905">
    <ele>309.50000000000006</ele>
   </trkpt>
   <trkpt lat="41.576570000000004" lon="1.6290600000000002">
    <ele>309.50000000000006</ele>
   </trkpt>
   <trkpt lat="41.57656" lon="1.6288">
    <ele>309.58000000000004</ele>
   </trkpt>
   <trkpt lat="41.57669000259525" lon="1.6280300013918672">
    <ele>310.37</ele>
   </trkpt>
   <trkpt lat="41.576820000000005" lon="1.6272600000000002">
    <ele>311.01</ele>
   </trkpt>
   <trkpt lat="41.576910000000005" lon="1.6266500000000002">
    <ele>311.64000000000004</ele>
   </trkpt>
   <trkpt lat="41.5770700035794" lon="1.625745002065467">
    <ele>312.68</ele>
   </trkpt>
   <trkpt lat="41.57723" lon="1.62484">
    <ele>313.13</ele>
   </trkpt>
   <trkpt lat="41.57742000978081" lon="1.6239725076556977">
    <ele>313.18</ele>
   </trkpt>
   <trkpt lat="41.57761001304123" lon="1.6231050102071267">
    <ele>313.57</ele>
   </trkpt>
   <trkpt lat="41.57780000978118" lon="1.6222375076543982">
    <ele>314.04</ele>
   </trkpt>
   <trkpt lat="41.57799000000001" lon="1.6213700000000002">
    <ele>314.45</ele>
   </trkpt>
   <trkpt lat="41.5780750019464" lon="1.6207050006360213">
    <ele>315.29</ele>
   </trkpt>
   <trkpt lat="41.578160000000004" lon="1.6200400000000001">
    <ele>316.3</ele>
   </trkpt>
   <trkpt lat="41.5782" lon="1.6200200000000002">
    <ele>316.3</ele>
   </trkpt>
   <trkpt lat="41.578230000000005" lon="1.61996">
    <ele>316.51</ele>
   </trkpt>
   <trkpt lat="41.57883" lon="1.61996">
    <ele>317.62</ele>
   </trkpt>
   <trkpt lat="41.57893000000001" lon="1.6199100000000002">
    <ele>317.62</ele>
   </trkpt>
   <trkpt lat="41.578990000000005" lon="1.6198100000000002">
    <ele>317.92</ele>
   </trkpt>
   <trkpt lat="41.579150000000006" lon="1.61949">
    <ele>318.13</ele>
   </trkpt>
   <trkpt lat="41.57929" lon="1.6192000000000002">
    <ele>318.38000000000005</ele>
   </trkpt>
   <trkpt lat="41.57938" lon="1.61878">
    <ele>319.12</ele>
   </trkpt>
   <trkpt lat="41.579480003989126" lon="1.6178200015198558">
    <ele>319.83</ele>
   </trkpt>
   <trkpt lat="41.57958" lon="1.6168600000000002">
    <ele>320.64000000000004</ele>
   </trkpt>
   <trkpt lat="41.579741687966944" lon="1.6158683457548828">
    <ele>321.15000000000003</ele>
   </trkpt>
   <trkpt lat="41.579903367413344" lon="1.6148766865442867">
    <ele>321.65000000000003</ele>
   </trkpt>
   <trkpt lat="41.5800650383391" lon="1.61388502236842">
    <ele>321.96000000000004</ele>
   </trkpt>
   <trkpt lat="41.58022670074414" lon="1.6128933532274914">
    <ele>322.78000000000003</ele>
   </trkpt>
   <trkpt lat="41.58038835462835" lon="1.61190167912171">
    <ele>323.32000000000005</ele>
   </trkpt>
   <trkpt lat="41.58055" lon="1.61091">
    <ele>324.08000000000004</ele>
   </trkpt>
   <trkpt lat="41.58079500549309" lon="1.6097850042220172">
    <ele>324.20000000000005</ele>
   </trkpt>
   <trkpt lat="41.58104" lon="1.6086600000000002">
    <ele>323.33</ele>
   </trkpt>
   <trkpt lat="41.58120333859974" lon="1.6078800039701482">
    <ele>319.65000000000003</ele>
   </trkpt>
   <trkpt lat="41.58136667192798" lon="1.6071000039945316">
    <ele>315.83</ele>
   </trkpt>
   <trkpt lat="41.58153" lon="1.6063200000000002">
    <ele>313.51</ele>
   </trkpt>
   <trkpt lat="41.581520000000005" lon="1.6063200000000002">
    <ele>313.49000000000007</ele>
   </trkpt>
   <trkpt lat="41.58142" lon="1.6061900000000002">
    <ele>313.49000000000007</ele>
   </trkpt>
   <trkpt lat="41.581410000000005" lon="1.60613">
    <ele>312.44000000000005</ele>
   </trkpt>
   <trkpt lat="41.58142" lon="1.606">
    <ele>312.44000000000005</ele>
   </trkpt>
   <trkpt lat="41.5812" lon="1.60589">
    <ele>312.02000000000004</ele>
   </trkpt>
   <trkpt lat="41.58109" lon="1.6058700000000001">
    <ele>311.74</ele>
   </trkpt>
   <trkpt lat="41.581" lon="1.6058800000000002">
    <ele>311.09000000000003</ele>
   </trkpt>
   <trkpt lat="41.58093" lon="1.6059100000000002">
    <ele>311.09000000000003</ele>
   </trkpt>
   <trkpt lat="41.58075" lon="1.60603">
    <ele>310.18</ele>
   </trkpt>
   <trkpt lat="41.580760000000005" lon="1.6060200000000002">
    <ele>310.18</ele>
   </trkpt>
   <trkpt lat="41.580670000000005" lon="1.6061100000000001">
    <ele>309.3</ele>
   </trkpt>
   <trkpt lat="41.580120002205994" lon="1.6068050057758274">
    <ele>306.44000000000005</ele>
   </trkpt>
   <trkpt lat="41.579570000000004" lon="1.6075000000000002">
    <ele>305.38000000000005</ele>
   </trkpt>
   <trkpt lat="41.579530000000005" lon="1.60766">
    <ele>305.65000000000003</ele>
   </trkpt>
   <trkpt lat="41.579550000000005" lon="1.60783">
    <ele>305.65000000000003</ele>
   </trkpt>
   <trkpt lat="41.579510000000006" lon="1.60786">
    <ele>305.65000000000003</ele>
   </trkpt>
   <trkpt lat="41.579460000000005" lon="1.60796">
    <ele>305.83000000000004</ele>
   </trkpt>
   <trkpt lat="41.579460000000005" lon="1.6080800000000002">
    <ele>305.83000000000004</ele>
   </trkpt>
   <trkpt lat="41.57949000000001" lon="1.60813">
    <ele>305.83000000000004</ele>
   </trkpt>
   <trkpt lat="41.57883000145753" lon="1.6087200060747229">
    <ele>305.39000000000004</ele>
   </trkpt>
   <trkpt lat="41.57817" lon="1.6093100000000002">
    <ele>305.21000000000004</ele>
   </trkpt>
   <trkpt lat="41.57781000000001" lon="1.6097000000000001">
    <ele>304.85</ele>
   </trkpt>
   <trkpt lat="41.57764" lon="1.60993">
    <ele>304.08</ele>
   </trkpt>
   <trkpt lat="41.577400000000004" lon="1.6101900000000002">
    <ele>304.1</ele>
   </trkpt>
   <trkpt lat="41.577110000000005" lon="1.61057">
    <ele>304.22</ele>
   </trkpt>
   <trkpt lat="41.57697" lon="1.6107900000000002">
    <ele>304.05</ele>
   </trkpt>
   <trkpt lat="41.57678000000001" lon="1.6111400000000002">
    <ele>304.03000000000003</ele>
   </trkpt>
   <trkpt lat="41.57635000345541" lon="1.6120400061042284">
    <ele>303.85</ele>
   </trkpt>
   <trkpt lat="41.57592" lon="1.61294">
    <ele>302.96</ele>
   </trkpt>
   <trkpt lat="41.5758" lon="1.61332">
    <ele>302.96</ele>
   </trkpt>
   <trkpt lat="41.575750000000006" lon="1.61355">
    <ele>302.33000000000004</ele>
   </trkpt>
   <trkpt lat="41.57571" lon="1.6139800000000002">
    <ele>302.25</ele>
   </trkpt>
   <trkpt lat="41.575720000000004" lon="1.6146">
    <ele>301.9</ele>
   </trkpt>
   <trkpt lat="41.575770000000006" lon="1.6149000000000002">
    <ele>301.78000000000003</ele>
   </trkpt>
   <trkpt lat="41.57583" lon="1.6150600000000002">
    <ele>301.78000000000003</ele>
   </trkpt>
   <trkpt lat="41.5758" lon="1.6151200000000001">
    <ele>301.58</ele>
   </trkpt>
   <trkpt lat="41.57583" lon="1.6152000000000002">
    <ele>301.58</ele>
   </trkpt>
   <trkpt lat="41.57587" lon="1.61521">
    <ele>301.58</ele>
   </trkpt>
   <trkpt lat="41.575900000000004" lon="1.61538">
    <ele>301.58</ele>
   </trkpt>
   <trkpt lat="41.576010000000004" lon="1.61565">
    <ele>301.56000000000006</ele>
   </trkpt>
   <trkpt lat="41.57636500174258" lon="1.6162799965782941">
    <ele>301.87</ele>
   </trkpt>
   <trkpt lat="41.57672" lon="1.61691">
    <ele>302.83000000000004</ele>
   </trkpt>
   <trkpt lat="41.576840000000004" lon="1.61715">
    <ele>302.94000000000005</ele>
   </trkpt>
   <trkpt lat="41.576950000000004" lon="1.61748">
    <ele>302.96</ele>
   </trkpt>
   <trkpt lat="41.576980000000006" lon="1.6177100000000002">
    <ele>302.70000000000005</ele>
   </trkpt>
   <trkpt lat="41.576980000000006" lon="1.6183400000000001">
    <ele>302.71000000000004</ele>
   </trkpt>
   <trkpt lat="41.57706" lon="1.61884">
    <ele>302.6</ele>
   </trkpt>
   <trkpt lat="41.57706" lon="1.6189300000000002">
    <ele>302.6</ele>
   </trkpt>
   <trkpt lat="41.57697" lon="1.61921">
    <ele>302.28000000000003</ele>
   </trkpt>
   <trkpt lat="41.57694" lon="1.6193700000000002">
    <ele>302.28000000000003</ele>
   </trkpt>
   <trkpt lat="41.576930000000004" lon="1.61955">
    <ele>302.28000000000003</ele>
   </trkpt>
   <trkpt lat="41.576950000000004" lon="1.61975">
    <ele>302.16</ele>
   </trkpt>
   <trkpt lat="41.57692" lon="1.6198800000000002">
    <ele>302.16</ele>
   </trkpt>
   <trkpt lat="41.576585003031624" lon="1.620715004303324">
    <ele>301.83000000000004</ele>
   </trkpt>
   <trkpt lat="41.57625" lon="1.62155">
    <ele>301.8</ele>
   </trkpt>
   <trkpt lat="41.57621" lon="1.62172">
    <ele>301.85</ele>
   </trkpt>
   <trkpt lat="41.576170000000005" lon="1.622">
    <ele>302.06000000000006</ele>
   </trkpt>
   <trkpt lat="41.576040000000006" lon="1.62247">
    <ele>302.71000000000004</ele>
   </trkpt>
   <trkpt lat="41.576080000000005" lon="1.62253">
    <ele>302.93</ele>
   </trkpt>
   <trkpt lat="41.576080000000005" lon="1.62261">
    <ele>302.93</ele>
   </trkpt>
   <trkpt lat="41.57603" lon="1.62267">
    <ele>302.65000000000003</ele>
   </trkpt>
   <trkpt lat="41.57596" lon="1.6226600000000002">
    <ele>302.65000000000003</ele>
   </trkpt>
   <trkpt lat="41.575750000000006" lon="1.62308">
    <ele>301.49</ele>
   </trkpt>
   <trkpt lat="41.575520000000004" lon="1.6236300000000001">
    <ele>300.98</ele>
   </trkpt>
   <trkpt lat="41.5754" lon="1.6238400000000002">
    <ele>301.04</ele>
   </trkpt>
   <trkpt lat="41.57486" lon="1.62461">
    <ele>299.96</ele>
   </trkpt>
   <trkpt lat="41.57441667186551" lon="1.6253833439190681">
    <ele>298.33000000000004</ele>
   </trkpt>
   <trkpt lat="41.57397333854929" lon="1.626156677222409">
    <ele>297.58</ele>
   </trkpt>
   <trkpt lat="41.573530000000005" lon="1.6269300000000002">
    <ele>297.03000000000003</ele>
   </trkpt>
   <trkpt lat="41.57340000000001" lon="1.62722">
    <ele>296.81</ele>
   </trkpt>
   <trkpt lat="41.573280000000004" lon="1.6276300000000001">
    <ele>296.81</ele>
   </trkpt>
   <trkpt lat="41.5732" lon="1.6280000000000001">
    <ele>296.15000000000003</ele>
   </trkpt>
   <trkpt lat="41.573150000000005" lon="1.6286900000000002">
    <ele>295.97</ele>
   </trkpt>
   <trkpt lat="41.57312" lon="1.6287">
    <ele>295.97</ele>
   </trkpt>
   <trkpt lat="41.57305" lon="1.62877">
    <ele>295.81</ele>
   </trkpt>
   <trkpt lat="41.57305" lon="1.6289000000000002">
    <ele>295.78999999999996</ele>
   </trkpt>
   <trkpt lat="41.57307" lon="1.62894">
    <ele>295.78999999999996</ele>
   </trkpt>
   <trkpt lat="41.573130000000006" lon="1.6289900000000002">
    <ele>295.78999999999996</ele>
   </trkpt>
   <trkpt lat="41.573150001801054" lon="1.6296349997607824">
    <ele>296.07</ele>
   </trkpt>
   <trkpt lat="41.573170000000005" lon="1.6302800000000002">
    <ele>295.8</ele>
   </trkpt>
   <trkpt lat="41.573260000000005" lon="1.6311700000000002">
    <ele>295.35</ele>
   </trkpt>
   <trkpt lat="41.573240000000006" lon="1.63131">
    <ele>295.07</ele>
   </trkpt>
   <trkpt lat="41.573190000000004" lon="1.6313600000000001">
    <ele>295.07</ele>
   </trkpt>
   <trkpt lat="41.57318" lon="1.63145">
    <ele>295.07</ele>
   </trkpt>
   <trkpt lat="41.5732" lon="1.6315300000000001">
    <ele>294.97</ele>
   </trkpt>
   <trkpt lat="41.57323" lon="1.6315600000000001">
    <ele>294.97</ele>
   </trkpt>
   <trkpt lat="41.573240000000006" lon="1.63166">
    <ele>294.74</ele>
   </trkpt>
   <trkpt lat="41.57321" lon="1.63166">
    <ele>294.63</ele>
   </trkpt>
   <trkpt lat="41.57314" lon="1.63247">
    <ele>294.63</ele>
   </trkpt>
   <trkpt lat="41.57305" lon="1.63247">
    <ele>291.40000000000003</ele>
   </trkpt>
   <trkpt lat="41.573" lon="1.6325900000000002">
    <ele>290.73</ele>
   </trkpt>
   <trkpt lat="41.57294" lon="1.63263">
    <ele>290.73</ele>
   </trkpt>
   <trkpt lat="41.57287" lon="1.63264">
    <ele>290.42</ele>
   </trkpt>
   <trkpt lat="41.57256" lon="1.63264">
    <ele>290.49</ele>
   </trkpt>
   <trkpt lat="41.57224" lon="1.6327800000000001">
    <ele>291.02</ele>
   </trkpt>
   <trkpt lat="41.57184" lon="1.6329000000000002">
    <ele>291.07000000000005</ele>
   </trkpt>
   <trkpt lat="41.57177" lon="1.6328600000000002">
    <ele>291.07000000000005</ele>
   </trkpt>
   <trkpt lat="41.57146" lon="1.6328200000000002">
    <ele>291.08</ele>
   </trkpt>
   <trkpt lat="41.57104" lon="1.6328">
    <ele>291.13</ele>
   </trkpt>
   <trkpt lat="41.570620000000005" lon="1.63277">
    <ele>290.72</ele>
   </trkpt>
   <trkpt lat="41.57039" lon="1.6327800000000001">
    <ele>290.77000000000004</ele>
   </trkpt>
   <trkpt lat="41.57018" lon="1.6328900000000002">
    <ele>290.97</ele>
   </trkpt>
   <trkpt lat="41.570100000000004" lon="1.63297">
    <ele>290.97</ele>
   </trkpt>
   <trkpt lat="41.569900000000004" lon="1.63324">
    <ele>291.33000000000004</ele>
   </trkpt>
   <trkpt lat="41.56982" lon="1.6333700000000002">
    <ele>291.33000000000004</ele>
   </trkpt>
   <trkpt lat="41.56971" lon="1.6335700000000002">
    <ele>291.34000000000003</ele>
   </trkpt>
   <trkpt lat="41.56928500335359" lon="1.6344450056804034">
    <ele>291.24</ele>
   </trkpt>
   <trkpt lat="41.56886" lon="1.63532">
    <ele>291.92</ele>
   </trkpt>
   <trkpt lat="41.56877" lon="1.63545">
    <ele>292.12000000000006</ele>
   </trkpt>
   <trkpt lat="41.56871" lon="1.6355600000000001">
    <ele>292.12000000000006</ele>
   </trkpt>
   <trkpt lat="41.56870000000001" lon="1.6356600000000001">
    <ele>291.87</ele>
   </trkpt>
   <trkpt lat="41.56855" lon="1.63602">
    <ele>290.14</ele>
   </trkpt>
   <trkpt lat="41.568160001917455" lon="1.6366900040912364">
    <ele>289.59000000000003</ele>
   </trkpt>
   <trkpt lat="41.56777" lon="1.6373600000000001">
    <ele>289.77000000000004</ele>
   </trkpt>
   <trkpt lat="41.567460000000004" lon="1.63762">
    <ele>289.64</ele>
   </trkpt>
   <trkpt lat="41.567095000545415" lon="1.6379800020495847">
    <ele>289.48</ele>
   </trkpt>
   <trkpt lat="41.56673000000001" lon="1.6383400000000001">
    <ele>289.48</ele>
   </trkpt>
   <trkpt lat="41.56627" lon="1.6385800000000001">
    <ele>289.6</ele>
   </trkpt>
   <trkpt lat="41.565835000071274" lon="1.6387450011285762">
    <ele>289.58</ele>
   </trkpt>
   <trkpt lat="41.565400000000004" lon="1.63891">
    <ele>289.53000000000003</ele>
   </trkpt>
   <trkpt lat="41.56513" lon="1.6390600000000002">
    <ele>289.31</ele>
   </trkpt>
   <trkpt lat="41.564980000000006" lon="1.6392000000000002">
    <ele>289.02</ele>
   </trkpt>
   <trkpt lat="41.56486" lon="1.6393600000000002">
    <ele>288.16</ele>
   </trkpt>
   <trkpt lat="41.564510000000006" lon="1.6397300000000001">
    <ele>287.21000000000004</ele>
   </trkpt>
   <trkpt lat="41.56438" lon="1.6399100000000002">
    <ele>286.96000000000004</ele>
   </trkpt>
   <trkpt lat="41.5641" lon="1.6402">
    <ele>285.5</ele>
   </trkpt>
   <trkpt lat="41.56394" lon="1.64043">
    <ele>285.01000000000005</ele>
   </trkpt>
   <trkpt lat="41.563810000000004" lon="1.64057">
    <ele>284.75</ele>
   </trkpt>
   <trkpt lat="41.563860000000005" lon="1.64067">
    <ele>284.75</ele>
   </trkpt>
   <trkpt lat="41.56409" lon="1.6406900000000002">
    <ele>284.28000000000003</ele>
   </trkpt>
   <trkpt lat="41.56427" lon="1.64063">
    <ele>284.37</ele>
   </trkpt>
   <trkpt lat="41.56472" lon="1.64033">
    <ele>286.1</ele>
   </trkpt>
   <trkpt lat="41.56481" lon="1.6403">
    <ele>286.39000000000004</ele>
   </trkpt>
   <trkpt lat="41.564890000000005" lon="1.64033">
    <ele>287.09000000000003</ele>
   </trkpt>
   <trkpt lat="41.56494" lon="1.6404200000000002">
    <ele>287.87</ele>
   </trkpt>
   <trkpt lat="41.565000000000005" lon="1.6403500000000002">
    <ele>287.87</ele>
   </trkpt>
   <trkpt lat="41.56519" lon="1.6402">
    <ele>288.94</ele>
   </trkpt>
   <trkpt lat="41.565760000000004" lon="1.6398300000000001">
    <ele>289.90999999999997</ele>
   </trkpt>
   <trkpt lat="41.566370000000006" lon="1.6395100000000002">
    <ele>289.97</ele>
   </trkpt>
   <trkpt lat="41.566790000000005" lon="1.63932">
    <ele>289.88</ele>
   </trkpt>
   <trkpt lat="41.56711000000001" lon="1.6390900000000002">
    <ele>289.84999999999997</ele>
   </trkpt>
   <trkpt lat="41.56734" lon="1.6389200000000002">
    <ele>289.83000000000004</ele>
   </trkpt>
   <trkpt lat="41.56796000000001" lon="1.6382200000000002">
    <ele>289.72</ele>
   </trkpt>
   <trkpt lat="41.56837" lon="1.63758">
    <ele>289.68000000000006</ele>
   </trkpt>
   <trkpt lat="41.568780002632124" lon="1.6367800053510113">
    <ele>289.79</ele>
   </trkpt>
   <trkpt lat="41.569190000000006" lon="1.6359800000000002">
    <ele>292.03000000000003</ele>
   </trkpt>
   <trkpt lat="41.56944" lon="1.63538">
    <ele>291.54</ele>
   </trkpt>
   <trkpt lat="41.569700000000005" lon="1.6348900000000002">
    <ele>291.40000000000003</ele>
   </trkpt>
   <trkpt lat="41.57014000154606" lon="1.6343050038999818">
    <ele>291.51000000000005</ele>
   </trkpt>
   <trkpt lat="41.57058000000001" lon="1.63372">
    <ele>291.59000000000003</ele>
   </trkpt>
   <trkpt lat="41.57079" lon="1.6335300000000001">
    <ele>291.69</ele>
   </trkpt>
   <trkpt lat="41.57099" lon="1.63342">
    <ele>291.66</ele>
   </trkpt>
   <trkpt lat="41.57117" lon="1.63338">
    <ele>291.42</ele>
   </trkpt>
   <trkpt lat="41.57135" lon="1.6333700000000002">
    <ele>290.61</ele>
   </trkpt>
   <trkpt lat="41.57144" lon="1.6335100000000002">
    <ele>291.18000000000006</ele>
   </trkpt>
   <trkpt lat="41.57148" lon="1.6336300000000001">
    <ele>291.62000000000006</ele>
   </trkpt>
   <trkpt lat="41.57148" lon="1.63362">
    <ele>291.58</ele>
   </trkpt>
   <trkpt lat="41.57152000000001" lon="1.6337300000000001">
    <ele>292.09000000000003</ele>
   </trkpt>
   <trkpt lat="41.57159" lon="1.6338000000000001">
    <ele>292.84999999999997</ele>
   </trkpt>
   <trkpt lat="41.57164" lon="1.6338100000000002">
    <ele>292.84999999999997</ele>
   </trkpt>
   <trkpt lat="41.57168" lon="1.63392">
    <ele>294.43</ele>
   </trkpt>
   <trkpt lat="41.57168" lon="1.63403">
    <ele>295.13</ele>
   </trkpt>
   <trkpt lat="41.57188" lon="1.63447">
    <ele>301.45000000000005</ele>
   </trkpt>
   <trkpt lat="41.57195" lon="1.6347600000000002">
    <ele>301.83000000000004</ele>
   </trkpt>
   <trkpt lat="41.57199000000001" lon="1.6347200000000002">
    <ele>301.83000000000004</ele>
   </trkpt>
   <trkpt lat="41.572030000000005" lon="1.6347">
    <ele>302.27000000000004</ele>
   </trkpt>
   <trkpt lat="41.572210000000005" lon="1.6347">
    <ele>302.70000000000005</ele>
   </trkpt>
   <trkpt lat="41.57233" lon="1.63464">
    <ele>302.8</ele>
   </trkpt>
   <trkpt lat="41.57236" lon="1.63454">
    <ele>302.57</ele>
   </trkpt>
   <trkpt lat="41.57233" lon="1.63464">
    <ele>302.79</ele>
   </trkpt>
   <trkpt lat="41.57244" lon="1.6343200000000002">
    <ele>302.04</ele>
   </trkpt>
   <trkpt lat="41.572480000000006" lon="1.63426">
    <ele>301.75</ele>
   </trkpt>
   <trkpt lat="41.572750000000006" lon="1.6340400000000002">
    <ele>301.24</ele>
   </trkpt>
   <trkpt lat="41.573255000752894" lon="1.6335950035715199">
    <ele>300.50000000000006</ele>
   </trkpt>
   <trkpt lat="41.57376" lon="1.63315">
    <ele>300.99</ele>
   </trkpt>
   <trkpt lat="41.57383" lon="1.6332000000000002">
    <ele>301.22</ele>
   </trkpt>
   <trkpt lat="41.57388" lon="1.63318">
    <ele>301.22</ele>
   </trkpt>
   <trkpt lat="41.573930000000004" lon="1.63335">
    <ele>301.23</ele>
   </trkpt>
   <trkpt lat="41.574070000000006" lon="1.6333600000000001">
    <ele>302.32000000000005</ele>
   </trkpt>
   <trkpt lat="41.57421" lon="1.6333300000000002">
    <ele>303.21000000000004</ele>
   </trkpt>
   <trkpt lat="41.57441" lon="1.6333400000000002">
    <ele>305.16</ele>
   </trkpt>
   <trkpt lat="41.574740000000006" lon="1.63321">
    <ele>309.82000000000005</ele>
   </trkpt>
   <trkpt lat="41.57477" lon="1.6333700000000002">
    <ele>310.23</ele>
   </trkpt>
   <trkpt lat="41.575" lon="1.63372">
    <ele>311.22</ele>
   </trkpt>
   <trkpt lat="41.575250000000004" lon="1.6339400000000002">
    <ele>311.28</ele>
   </trkpt>
   <trkpt lat="41.575810000000004" lon="1.6343200000000002">
    <ele>312.42</ele>
   </trkpt>
   <trkpt lat="41.575860000000006" lon="1.6343200000000002">
    <ele>312.42</ele>
   </trkpt>
   <trkpt lat="41.57587" lon="1.6343200000000002">
    <ele>312.43</ele>
   </trkpt>
   <trkpt lat="41.57591" lon="1.6342700000000001">
    <ele>312.43</ele>
   </trkpt>
   <trkpt lat="41.57614" lon="1.63355">
    <ele>312.62</ele>
   </trkpt>
   <trkpt lat="41.576330000000006" lon="1.6330500000000001">
    <ele>312.8</ele>
   </trkpt>
   <trkpt lat="41.57667000180601" lon="1.632420003156101">
    <ele>313.05000000000007</ele>
   </trkpt>
   <trkpt lat="41.57701" lon="1.63179">
    <ele>313.49000000000007</ele>
   </trkpt>
   <trkpt lat="41.577040000000004" lon="1.63185">
    <ele>313.53000000000003</ele>
   </trkpt>
   <trkpt lat="41.57714" lon="1.6325800000000001">
    <ele>313.95</ele>
   </trkpt>
   <trkpt lat="41.57715" lon="1.6326600000000002">
    <ele>314.01</ele>
   </trkpt>
   <trkpt lat="41.57726" lon="1.63325">
    <ele>314.11</ele>
   </trkpt>
   <trkpt lat="41.57748" lon="1.63372">
    <ele>313.59000000000003</ele>
   </trkpt>
   <trkpt lat="41.577560000000005" lon="1.63365">
    <ele>313.61</ele>
   </trkpt>
   <trkpt lat="41.57777" lon="1.6340400000000002">
    <ele>315.18</ele>
   </trkpt>
   <trkpt lat="41.57791" lon="1.6342400000000001">
    <ele>315.18</ele>
   </trkpt>
   <trkpt lat="41.578300000000006" lon="1.6344900000000002">
    <ele>317.35</ele>
   </trkpt>
   <trkpt lat="41.57873" lon="1.6347300000000002">
    <ele>317.85</ele>
   </trkpt>
   <trkpt lat="41.57898" lon="1.6347600000000002">
    <ele>317.93000000000006</ele>
   </trkpt>
   <trkpt lat="41.579240000000006" lon="1.6346">
    <ele>318.39</ele>
   </trkpt>
   <trkpt lat="41.57952" lon="1.6344500000000002">
    <ele>319.1</ele>
   </trkpt>
   <trkpt lat="41.57968" lon="1.6343200000000002">
    <ele>319.78000000000003</ele>
   </trkpt>
   <trkpt lat="41.58016000000001" lon="1.63396">
    <ele>321.72</ele>
   </trkpt>
   <trkpt lat="41.58037" lon="1.6338700000000002">
    <ele>321.98</ele>
   </trkpt>
   <trkpt lat="41.580600000000004" lon="1.6338100000000002">
    <ele>322.45</ele>
   </trkpt>
   <trkpt lat="41.580740000000006" lon="1.6338300000000001">
    <ele>322.72</ele>
   </trkpt>
   <trkpt lat="41.581120000000006" lon="1.63392">
    <ele>323.05</ele>
   </trkpt>
   <trkpt lat="41.58131" lon="1.6339100000000002">
    <ele>323.09000000000003</ele>
   </trkpt>
   <trkpt lat="41.5818900003734" lon="1.6336800020086288">
    <ele>323.86</ele>
   </trkpt>
   <trkpt lat="41.58247" lon="1.63345">
    <ele>324.72</ele>
   </trkpt>
   <trkpt lat="41.582510000000006" lon="1.6334000000000002">
    <ele>324.72</ele>
   </trkpt>
   <trkpt lat="41.58258" lon="1.63324">
    <ele>325.0</ele>
   </trkpt>
   <trkpt lat="41.582973341801555" lon="1.6322500121212622">
    <ele>327.85</ele>
   </trkpt>
   <trkpt lat="41.583366675111016" lon="1.6312600121815948">
    <ele>332.04</ele>
   </trkpt>
   <trkpt lat="41.583760000000005" lon="1.63027">
    <ele>335.28000000000003</ele>
   </trkpt>
   <trkpt lat="41.584030000000006" lon="1.6296000000000002">
    <ele>335.75000000000006</ele>
   </trkpt>
   <trkpt lat="41.58410000000001" lon="1.6295600000000001">
    <ele>335.75000000000006</ele>
   </trkpt>
   <trkpt lat="41.58413" lon="1.6294000000000002">
    <ele>335.96000000000004</ele>
   </trkpt>
   <trkpt lat="41.58445000311037" lon="1.6285550041429693">
    <ele>337.47</ele>
   </trkpt>
   <trkpt lat="41.584770000000006" lon="1.6277100000000002">
    <ele>338.01000000000005</ele>
   </trkpt>
   <trkpt lat="41.584810000000004" lon="1.62765">
    <ele>338.11</ele>
   </trkpt>
   <trkpt lat="41.58485" lon="1.6277400000000002">
    <ele>337.86000000000007</ele>
   </trkpt>
   <trkpt lat="41.58489" lon="1.62779">
    <ele>337.86000000000007</ele>
   </trkpt>
   <trkpt lat="41.58498" lon="1.6278000000000001">
    <ele>337.86000000000007</ele>
   </trkpt>
   <trkpt lat="41.585060000000006" lon="1.6277300000000001">
    <ele>338.01000000000005</ele>
   </trkpt>
   <trkpt lat="41.585210000000004" lon="1.6276800000000002">
    <ele>338.4200000000001</ele>
   </trkpt>
   <trkpt lat="41.58567499998251" lon="1.6278549986831512">
    <ele>339.95000000000005</ele>
   </trkpt>
   <trkpt lat="41.58614" lon="1.62803">
    <ele>342.45000000000005</ele>
   </trkpt>
   <trkpt lat="41.586130000000004" lon="1.62802">
    <ele>342.37</ele>
   </trkpt>
   <trkpt lat="41.58699" lon="1.62836">
    <ele>346.31</ele>
   </trkpt>
   <trkpt lat="41.58699" lon="1.6284200000000002">
    <ele>346.31</ele>
   </trkpt>
   <trkpt lat="41.58701000000001" lon="1.6285">
    <ele>346.24000000000007</ele>
   </trkpt>
   <trkpt lat="41.586920000000006" lon="1.62874">
    <ele>345.85</ele>
   </trkpt>
   <trkpt lat="41.586548355348484" lon="1.6297483623812012">
    <ele>345.12</ele>
   </trkpt>
   <trkpt lat="41.58617670188678" lon="1.6307567131536749">
    <ele>342.44</ele>
   </trkpt>
   <trkpt lat="41.58580503961508" lon="1.6317650523174305">
    <ele>335.95000000000005</ele>
   </trkpt>
   <trkpt lat="41.58543336853362" lon="1.6327733798724793">
    <ele>329.39</ele>
   </trkpt>
   <trkpt lat="41.58506168864263" lon="1.6337816958188307">
    <ele>323.96000000000004</ele>
   </trkpt>
   <trkpt lat="41.58469" lon="1.6347900000000002">
    <ele>318.87000000000006</ele>
   </trkpt>
   <trkpt lat="41.58473" lon="1.6346800000000001">
    <ele>319.37000000000006</ele>
   </trkpt>
   <trkpt lat="41.58496" lon="1.6348600000000002">
    <ele>319.44</ele>
   </trkpt>
   <trkpt lat="41.58516" lon="1.63497">
    <ele>318.86</ele>
   </trkpt>
   <trkpt lat="41.58532" lon="1.6350000000000002">
    <ele>317.86</ele>
   </trkpt>
   <trkpt lat="41.585460000000005" lon="1.63497">
    <ele>317.42</ele>
   </trkpt>
   <trkpt lat="41.58608500032204" lon="1.6346900027183255">
    <ele>313.92</ele>
   </trkpt>
   <trkpt lat="41.586710000000004" lon="1.6344100000000001">
    <ele>311.17</ele>
   </trkpt>
   <trkpt lat="41.586800000000004" lon="1.6343200000000002">
    <ele>311.59000000000003</ele>
   </trkpt>
   <trkpt lat="41.586870000000005" lon="1.6342">
    <ele>312.06</ele>
   </trkpt>
   <trkpt lat="41.58717" lon="1.6334000000000002">
    <ele>316.90000000000003</ele>
   </trkpt>
   <trkpt lat="41.58754001178762" lon="1.6324475163868613">
    <ele>324.09000000000003</ele>
   </trkpt>
   <trkpt lat="41.587910015714215" lon="1.631495021856214">
    <ele>330.26000000000005</ele>
   </trkpt>
   <trkpt lat="41.5882800117796" lon="1.6305425164080227">
    <ele>334.74</ele>
   </trkpt>
   <trkpt lat="41.58865" lon="1.62959">
    <ele>337.32</ele>
   </trkpt>
   <trkpt lat="41.58872" lon="1.62958">
    <ele>336.73</ele>
   </trkpt>
   <trkpt lat="41.588770000000004" lon="1.62952">
    <ele>336.73</ele>
   </trkpt>
   <trkpt lat="41.58943666841592" lon="1.6299599909598372">
    <ele>331.39</ele>
   </trkpt>
   <trkpt lat="41.59010333515436" lon="1.6303999910070635">
    <ele>330.19000000000005</ele>
   </trkpt>
   <trkpt lat="41.590770000000006" lon="1.63084">
    <ele>334.32</ele>
   </trkpt>
   <trkpt lat="41.59139500070912" lon="1.6312699957735026">
    <ele>337.03000000000003</ele>
   </trkpt>
   <trkpt lat="41.592020000000005" lon="1.6317000000000002">
    <ele>337.99</ele>
   </trkpt>
   <trkpt lat="41.59214" lon="1.63176">
    <ele>337.99</ele>
   </trkpt>
   <trkpt lat="41.59214" lon="1.6317700000000002">
    <ele>338.0</ele>
   </trkpt>
   <trkpt lat="41.592200000000005" lon="1.6317000000000002">
    <ele>338.0</ele>
   </trkpt>
   <trkpt lat="41.592240000000004" lon="1.63169">
    <ele>338.07000000000005</ele>
   </trkpt>
   <trkpt lat="41.592290000000006" lon="1.6317000000000002">
    <ele>338.07000000000005</ele>
   </trkpt>
   <trkpt lat="41.59243" lon="1.6312200000000001">
    <ele>340.02000000000004</ele>
   </trkpt>
   <trkpt lat="41.592690000000005" lon="1.6305100000000001">
    <ele>342.56</ele>
   </trkpt>
   <trkpt lat="41.592850000000006" lon="1.6301700000000001">
    <ele>343.06</ele>
   </trkpt>
   <trkpt lat="41.592960000000005" lon="1.62999">
    <ele>343.31</ele>
   </trkpt>
   <trkpt lat="41.592850000000006" lon="1.6301700000000001">
    <ele>343.06</ele>
   </trkpt>
   <trkpt lat="41.59228000361188" lon="1.6292649921094267">
    <ele>340.14000000000004</ele>
   </trkpt>
   <trkpt lat="41.591710000000006" lon="1.62836">
    <ele>336.25000000000006</ele>
   </trkpt>
   <trkpt lat="41.59131" lon="1.62789">
    <ele>334.71</ele>
   </trkpt>
   <trkpt lat="41.59095000000001" lon="1.62755">
    <ele>334.36</ele>
   </trkpt>
   <trkpt lat="41.59038000069553" lon="1.6271699966913642">
    <ele>335.55</ele>
   </trkpt>
   <trkpt lat="41.58981" lon="1.6267900000000002">
    <ele>341.08000000000004</ele>
   </trkpt>
   <trkpt lat="41.58981" lon="1.6265100000000001">
    <ele>341.17</ele>
   </trkpt>
   <trkpt lat="41.589690000000004" lon="1.6266200000000002">
    <ele>341.44</ele>
   </trkpt>
   <trkpt lat="41.58959" lon="1.6266200000000002">
    <ele>341.69000000000005</ele>
   </trkpt>
   <trkpt lat="41.589510000000004" lon="1.6265800000000001">
    <ele>342.01000000000005</ele>
   </trkpt>
   <trkpt lat="41.58896" lon="1.6262">
    <ele>347.61</ele>
   </trkpt>
   <trkpt lat="41.5882" lon="1.6257100000000002">
    <ele>349.95000000000005</ele>
   </trkpt>
   <trkpt lat="41.588170000000005" lon="1.62575">
    <ele>349.91</ele>
   </trkpt>
   <trkpt lat="41.5882" lon="1.6257100000000002">
    <ele>349.94</ele>
   </trkpt>
   <trkpt lat="41.588170000000005" lon="1.62576">
    <ele>349.94</ele>
   </trkpt>
   <trkpt lat="41.588080000000005" lon="1.6257800000000002">
    <ele>349.94</ele>
   </trkpt>
   <trkpt lat="41.58803" lon="1.6257300000000001">
    <ele>349.75</ele>
   </trkpt>
   <trkpt lat="41.588010000000004" lon="1.62566">
    <ele>349.75</ele>
   </trkpt>
   <trkpt lat="41.58802" lon="1.62558">
    <ele>349.75</ele>
   </trkpt>
   <trkpt lat="41.5873650008239" lon="1.6251299953979605">
    <ele>345.77000000000004</ele>
   </trkpt>
   <trkpt lat="41.586710000000004" lon="1.6246800000000001">
    <ele>342.84000000000003</ele>
   </trkpt>
   <trkpt lat="41.5867" lon="1.6246800000000001">
    <ele>342.82</ele>
   </trkpt>
   <trkpt lat="41.58632" lon="1.6244200000000002">
    <ele>341.59</ele>
   </trkpt>
   <trkpt lat="41.586290000000005" lon="1.62457">
    <ele>341.34000000000003</ele>
   </trkpt>
   <trkpt lat="41.58626" lon="1.6245500000000002">
    <ele>341.48</ele>
   </trkpt>
   <trkpt lat="41.58632" lon="1.6244200000000002">
    <ele>341.59</ele>
   </trkpt>
   <trkpt lat="41.586290000000005" lon="1.6245800000000001">
    <ele>341.12</ele>
   </trkpt>
   <trkpt lat="41.58608500113645" lon="1.6251150019689928">
    <ele>340.68</ele>
   </trkpt>
   <trkpt lat="41.58588" lon="1.62565">
    <ele>340.1</ele>
   </trkpt>
   <trkpt lat="41.58608500134362" lon="1.6251150014283402">
    <ele>340.68</ele>
   </trkpt>
   <trkpt lat="41.586290000000005" lon="1.6245800000000001">
    <ele>341.12</ele>
   </trkpt>
   <trkpt lat="41.58632" lon="1.6244200000000002">
    <ele>341.59</ele>
   </trkpt>
   <trkpt lat="41.58662" lon="1.6246200000000002">
    <ele>342.46000000000004</ele>
   </trkpt>
   <trkpt lat="41.586650000000006" lon="1.6253300000000002">
    <ele>341.97</ele>
   </trkpt>
   <trkpt lat="41.58663000000001" lon="1.6254000000000002">
    <ele>341.97</ele>
   </trkpt>
   <trkpt lat="41.58637" lon="1.6260400000000002">
    <ele>341.18</ele>
   </trkpt>
  </trkseg>
 </trk>
</gpx>
