<?xml version="1.0" encoding="UTF-8"?>
<gpx creator="StravaGPX" version="1.1" xmlns="http://www.topografix.com/GPX/1/1" xmlns:xsi="http://www.w3.org/2001/XMLSchema-instance" xsi:schemaLocation="http://www.topografix.com/GPX/1/1 http://www.topografix.com/GPX/1/1/gpx.xsd">
 <metadata>
  <name>Caminata MM Igualada</name>
  <desc>TFG</desc>
  <author>
   <name>Martí Claramunt</name>
   <link href="https://www.strava.com/athletes/63663471"/>
  </author>
  <copyright author="OpenStreetMap contributors">
   <year>2020</year>
   <license>https://www.openstreetmap.org/copyright</license>
  </copyright>
  <link href="https://www.strava.com/routes/3535029332237136502"/>
 </metadata>
 <trk>
  <name>Caminata MM Igualada</name>
  <desc>TFG</desc>
  <link href="https://www.strava.com/routes/3535029332237136502"/>
  <type>running</type>
  <trkseg>
   <trkpt lat="41.585860000000004" lon="1.62558">
    <ele>340.45000000000005</ele>
   </trkpt>
   <trkpt lat="41.58616000000001" lon="1.6248">
    <ele>341.47</ele>
   </trkpt>
   <trkpt lat="41.58632" lon="1.6244200000000002">
    <ele>341.59</ele>
   </trkpt>
   <trkpt lat="41.586400000000005" lon="1.6243100000000001">
    <ele>341.59</ele>
   </trkpt>
   <trkpt lat="41.58678000866137" lon="1.6233100117802857">
    <ele>342.6</ele>
   </trkpt>
   <trkpt lat="41.58716000865805" lon="1.622310011789202">
    <ele>344.16</ele>
   </trkpt>
   <trkpt lat="41.587540000000004" lon="1.62131">
    <ele>346.73</ele>
   </trkpt>
   <trkpt lat="41.587680000000006" lon="1.6212000000000002">
    <ele>348.02000000000004</ele>
   </trkpt>
   <trkpt lat="41.58776" lon="1.6211600000000002">
    <ele>348.02000000000004</ele>
   </trkpt>
   <trkpt lat="41.58784" lon="1.6210700000000002">
    <ele>348.48</ele>
   </trkpt>
   <trkpt lat="41.587900000000005" lon="1.6208900000000002">
    <ele>349.2</ele>
   </trkpt>
   <trkpt lat="41.58782" lon="1.6208200000000001">
    <ele>349.1</ele>
   </trkpt>
   <trkpt lat="41.58778" lon="1.6207500000000001">
    <ele>348.86</ele>
   </trkpt>
   <trkpt lat="41.5878" lon="1.62054">
    <ele>348.55</ele>
   </trkpt>
   <trkpt lat="41.58775000000001" lon="1.6205100000000001">
    <ele>348.55</ele>
   </trkpt>
   <trkpt lat="41.58787" lon="1.6201900000000002">
    <ele>348.99</ele>
   </trkpt>
   <trkpt lat="41.588010000000004" lon="1.6200500000000002">
    <ele>349.78000000000003</ele>
   </trkpt>
   <trkpt lat="41.588260002020036" lon="1.6193900022050511">
    <ele>352.84000000000003</ele>
   </trkpt>
   <trkpt lat="41.58851000000001" lon="1.6187300000000002">
    <ele>354.19</ele>
   </trkpt>
   <trkpt lat="41.58858" lon="1.6186200000000002">
    <ele>354.40999999999997</ele>
   </trkpt>
   <trkpt lat="41.588620000000006" lon="1.61864">
    <ele>354.40999999999997</ele>
   </trkpt>
   <trkpt lat="41.58863" lon="1.6185200000000002">
    <ele>354.63000000000005</ele>
   </trkpt>
   <trkpt lat="41.588923339167934" lon="1.6177000074282508">
    <ele>355.77000000000004</ele>
   </trkpt>
   <trkpt lat="41.58921667250967" lon="1.6168800074048704">
    <ele>356.21000000000004</ele>
   </trkpt>
   <trkpt lat="41.589510000000004" lon="1.61606">
    <ele>356.32</ele>
   </trkpt>
   <trkpt lat="41.58939" lon="1.6160100000000002">
    <ele>356.64</ele>
   </trkpt>
   <trkpt lat="41.589310000000005" lon="1.6159400000000002">
    <ele>356.97</ele>
   </trkpt>
   <trkpt lat="41.58939" lon="1.61569">
    <ele>357.07000000000005</ele>
   </trkpt>
   <trkpt lat="41.589380000000006" lon="1.61555">
    <ele>357.07000000000005</ele>
   </trkpt>
   <trkpt lat="41.58935" lon="1.6154700000000002">
    <ele>357.04</ele>
   </trkpt>
   <trkpt lat="41.589380000000006" lon="1.61539">
    <ele>357.1</ele>
   </trkpt>
   <trkpt lat="41.58941" lon="1.6153600000000001">
    <ele>357.1</ele>
   </trkpt>
   <trkpt lat="41.58945000000001" lon="1.61535">
    <ele>357.1</ele>
   </trkpt>
   <trkpt lat="41.589490000000005" lon="1.6153600000000001">
    <ele>357.16</ele>
   </trkpt>
   <trkpt lat="41.589740000000006" lon="1.61484">
    <ele>357.07000000000005</ele>
   </trkpt>
   <trkpt lat="41.589850000000006" lon="1.61416">
    <ele>356.42</ele>
   </trkpt>
   <trkpt lat="41.590100002178765" lon="1.6134600025543837">
    <ele>356.1</ele>
   </trkpt>
   <trkpt lat="41.59035" lon="1.6127600000000002">
    <ele>356.18000000000006</ele>
   </trkpt>
   <trkpt lat="41.590270000000004" lon="1.6126500000000001">
    <ele>356.18000000000006</ele>
   </trkpt>
   <trkpt lat="41.59035" lon="1.6126900000000002">
    <ele>355.94000000000005</ele>
   </trkpt>
   <trkpt lat="41.59049" lon="1.61251">
    <ele>355.45000000000005</ele>
   </trkpt>
   <trkpt lat="41.590770000000006" lon="1.6117500000000002">
    <ele>354.53000000000003</ele>
   </trkpt>
   <trkpt lat="41.590960001360564" lon="1.6112050013926533">
    <ele>354.2</ele>
   </trkpt>
   <trkpt lat="41.591150000000006" lon="1.6106600000000002">
    <ele>353.92</ele>
   </trkpt>
   <trkpt lat="41.59127" lon="1.6098500000000002">
    <ele>352.02000000000004</ele>
   </trkpt>
   <trkpt lat="41.59129" lon="1.6093700000000002">
    <ele>350.48</ele>
   </trkpt>
   <trkpt lat="41.591280000000005" lon="1.60888">
    <ele>348.29</ele>
   </trkpt>
   <trkpt lat="41.591240000000006" lon="1.6085600000000002">
    <ele>347.48</ele>
   </trkpt>
   <trkpt lat="41.591170000000005" lon="1.60854">
    <ele>347.52000000000004</ele>
   </trkpt>
   <trkpt lat="41.591260000000005" lon="1.6083100000000001">
    <ele>346.82</ele>
   </trkpt>
   <trkpt lat="41.591190000000005" lon="1.6078800000000002">
    <ele>344.28000000000003</ele>
   </trkpt>
   <trkpt lat="41.591240000000006" lon="1.60759">
    <ele>343.24000000000007</ele>
   </trkpt>
   <trkpt lat="41.591060000000006" lon="1.6064900000000002">
    <ele>342.91</ele>
   </trkpt>
   <trkpt lat="41.59094" lon="1.6059100000000002">
    <ele>344.14</ele>
   </trkpt>
   <trkpt lat="41.59094" lon="1.6059">
    <ele>344.16</ele>
   </trkpt>
   <trkpt lat="41.590830000000004" lon="1.6053300000000001">
    <ele>346.14</ele>
   </trkpt>
   <trkpt lat="41.59071333902008" lon="1.6045199970839201">
    <ele>346.88</ele>
   </trkpt>
   <trkpt lat="41.59059667235507" lon="1.6037099970955162">
    <ele>345.48</ele>
   </trkpt>
   <trkpt lat="41.59048000000001" lon="1.6029000000000002">
    <ele>343.77000000000004</ele>
   </trkpt>
   <trkpt lat="41.590410000000006" lon="1.6026900000000002">
    <ele>343.2</ele>
   </trkpt>
   <trkpt lat="41.590320000000006" lon="1.6025600000000002">
    <ele>343.2</ele>
   </trkpt>
   <trkpt lat="41.590230000000005" lon="1.6024800000000001">
    <ele>342.68</ele>
   </trkpt>
   <trkpt lat="41.590090000000004" lon="1.6024">
    <ele>342.68</ele>
   </trkpt>
   <trkpt lat="41.589960000000005" lon="1.60237">
    <ele>342.68</ele>
   </trkpt>
   <trkpt lat="41.589830000000006" lon="1.60237">
    <ele>342.68</ele>
   </trkpt>
   <trkpt lat="41.58954000000001" lon="1.6026300000000002">
    <ele>340.71</ele>
   </trkpt>
   <trkpt lat="41.5889950019466" lon="1.6033050057322011">
    <ele>339.57000000000005</ele>
   </trkpt>
   <trkpt lat="41.58845" lon="1.6039800000000002">
    <ele>338.15</ele>
   </trkpt>
   <trkpt lat="41.587950000000006" lon="1.6045500000000001">
    <ele>338.06</ele>
   </trkpt>
   <trkpt lat="41.58793" lon="1.6044600000000002">
    <ele>338.04</ele>
   </trkpt>
   <trkpt lat="41.587270000000004" lon="1.6047000000000002">
    <ele>336.56</ele>
   </trkpt>
   <trkpt lat="41.586646667171756" lon="1.6049333378262647">
    <ele>334.97</ele>
   </trkpt>
   <trkpt lat="41.58602333387175" lon="1.60516667114706">
    <ele>333.84000000000003</ele>
   </trkpt>
   <trkpt lat="41.5854" lon="1.6054000000000002">
    <ele>332.99</ele>
   </trkpt>
   <trkpt lat="41.585170000000005" lon="1.60542">
    <ele>332.04</ele>
   </trkpt>
   <trkpt lat="41.584720000000004" lon="1.6053600000000001">
    <ele>330.15000000000003</ele>
   </trkpt>
   <trkpt lat="41.584590000000006" lon="1.60532">
    <ele>329.65000000000003</ele>
   </trkpt>
   <trkpt lat="41.58446" lon="1.6052400000000002">
    <ele>328.78000000000003</ele>
   </trkpt>
   <trkpt lat="41.584390000000006" lon="1.6051600000000001">
    <ele>328.78000000000003</ele>
   </trkpt>
   <trkpt lat="41.58410000000001" lon="1.6047200000000001">
    <ele>324.95</ele>
   </trkpt>
   <trkpt lat="41.584030000000006" lon="1.6046900000000002">
    <ele>324.95</ele>
   </trkpt>
   <trkpt lat="41.58402" lon="1.6046900000000002">
    <ele>324.88</ele>
   </trkpt>
   <trkpt lat="41.58397" lon="1.60467">
    <ele>324.34000000000003</ele>
   </trkpt>
   <trkpt lat="41.583780000000004" lon="1.6046500000000001">
    <ele>324.34000000000003</ele>
   </trkpt>
   <trkpt lat="41.583760000000005" lon="1.6047600000000002">
    <ele>320.89</ele>
   </trkpt>
   <trkpt lat="41.58351500218812" lon="1.6054650025747201">
    <ele>317.63</ele>
   </trkpt>
   <trkpt lat="41.583270000000006" lon="1.60617">
    <ele>315.62</ele>
   </trkpt>
   <trkpt lat="41.58315" lon="1.60637">
    <ele>315.93000000000006</ele>
   </trkpt>
   <trkpt lat="41.583020000000005" lon="1.60651">
    <ele>316.6</ele>
   </trkpt>
   <trkpt lat="41.58297" lon="1.6067300000000002">
    <ele>319.48</ele>
   </trkpt>
   <trkpt lat="41.58297" lon="1.6068300000000002">
    <ele>319.23</ele>
   </trkpt>
   <trkpt lat="41.582910000000005" lon="1.6069300000000002">
    <ele>318.04</ele>
   </trkpt>
   <trkpt lat="41.5833" lon="1.60738">
    <ele>320.27</ele>
   </trkpt>
   <trkpt lat="41.583600000000004" lon="1.60786">
    <ele>323.51</ele>
   </trkpt>
   <trkpt lat="41.58372000000001" lon="1.6081">
    <ele>325.29</ele>
   </trkpt>
   <trkpt lat="41.58382" lon="1.6083500000000002">
    <ele>326.84000000000003</ele>
   </trkpt>
   <trkpt lat="41.5839400014763" lon="1.608944998609296">
    <ele>328.79</ele>
   </trkpt>
   <trkpt lat="41.58406" lon="1.6095400000000002">
    <ele>330.18</ele>
   </trkpt>
   <trkpt lat="41.58408" lon="1.6102">
    <ele>331.19000000000005</ele>
   </trkpt>
   <trkpt lat="41.584030000000006" lon="1.6105600000000002">
    <ele>331.66</ele>
   </trkpt>
   <trkpt lat="41.583830000000006" lon="1.61169">
    <ele>332.27</ele>
   </trkpt>
   <trkpt lat="41.583740000000006" lon="1.6120200000000002">
    <ele>332.05</ele>
   </trkpt>
   <trkpt lat="41.583760000000005" lon="1.6120400000000001">
    <ele>332.01000000000005</ele>
   </trkpt>
   <trkpt lat="41.583455011672335" lon="1.6129875134134124">
    <ele>330.43</ele>
   </trkpt>
   <trkpt lat="41.583150015565764" lon="1.6139350178760157">
    <ele>330.01</ele>
   </trkpt>
   <trkpt lat="41.58284501168044" lon="1.6148825133877625">
    <ele>329.01</ele>
   </trkpt>
   <trkpt lat="41.58254" lon="1.61583">
    <ele>328.43</ele>
   </trkpt>
   <trkpt lat="41.582530000000006" lon="1.61582">
    <ele>328.46000000000004</ele>
   </trkpt>
   <trkpt lat="41.58252" lon="1.6158400000000002">
    <ele>328.46000000000004</ele>
   </trkpt>
   <trkpt lat="41.582440000000005" lon="1.61609">
    <ele>328.08000000000004</ele>
   </trkpt>
   <trkpt lat="41.582480000000004" lon="1.6161">
    <ele>328.08000000000004</ele>
   </trkpt>
   <trkpt lat="41.58222000000001" lon="1.61705">
    <ele>325.94</ele>
   </trkpt>
   <trkpt lat="41.582280000000004" lon="1.6170700000000002">
    <ele>326.0</ele>
   </trkpt>
   <trkpt lat="41.581955588994184" lon="1.6180522616978397">
    <ele>324.45</ele>
   </trkpt>
   <trkpt lat="41.58163116962851" lon="1.619034513526216">
    <ele>323.35</ele>
   </trkpt>
   <trkpt lat="41.581306741903155" lon="1.6200167554850866">
    <ele>322.43000000000006</ele>
   </trkpt>
   <trkpt lat="41.5809823058183" lon="1.6209989875744086">
    <ele>321.35</ele>
   </trkpt>
   <trkpt lat="41.58065786137413" lon="1.62198120979414">
    <ele>319.97</ele>
   </trkpt>
   <trkpt lat="41.58033340857082" lon="1.6229634221442377">
    <ele>318.83</ele>
   </trkpt>
   <trkpt lat="41.58000894740853" lon="1.6239456246246595">
    <ele>317.53000000000003</ele>
   </trkpt>
   <trkpt lat="41.579684477887476" lon="1.6249278172353627">
    <ele>316.95</ele>
   </trkpt>
   <trkpt lat="41.57936" lon="1.6259100000000002">
    <ele>316.59000000000003</ele>
   </trkpt>
   <trkpt lat="41.579350000000005" lon="1.6259100000000002">
    <ele>316.58000000000004</ele>
   </trkpt>
   <trkpt lat="41.5801" lon="1.6262900000000002">
    <ele>320.09000000000003</ele>
   </trkpt>
   <trkpt lat="41.58034000000001" lon="1.62637">
    <ele>323.14000000000004</ele>
   </trkpt>
   <trkpt lat="41.5810400005076" lon="1.626559993831681">
    <ele>328.40000000000003</ele>
   </trkpt>
   <trkpt lat="41.58174000070242" lon="1.6267499917824">
    <ele>330.03000000000003</ele>
   </trkpt>
   <trkpt lat="41.58244000058444" lon="1.6269399938523457">
    <ele>332.16</ele>
   </trkpt>
   <trkpt lat="41.58314" lon="1.6271300000000002">
    <ele>334.90000000000003</ele>
   </trkpt>
   <trkpt lat="41.58383000016078" lon="1.6272899983018048">
    <ele>337.69000000000005</ele>
   </trkpt>
   <trkpt lat="41.584520000000005" lon="1.62745">
    <ele>337.9200000000001</ele>
   </trkpt>
   <trkpt lat="41.58451" lon="1.62745">
    <ele>337.9200000000001</ele>
   </trkpt>
   <trkpt lat="41.584810000000004" lon="1.6275400000000002">
    <ele>338.22</ele>
   </trkpt>
   <trkpt lat="41.584810000000004" lon="1.62765">
    <ele>338.11</ele>
   </trkpt>
   <trkpt lat="41.58485" lon="1.6277400000000002">
    <ele>337.86000000000007</ele>
   </trkpt>
   <trkpt lat="41.58489" lon="1.62779">
    <ele>337.86000000000007</ele>
   </trkpt>
   <trkpt lat="41.58498" lon="1.6278000000000001">
    <ele>337.86000000000007</ele>
   </trkpt>
   <trkpt lat="41.585060000000006" lon="1.6277300000000001">
    <ele>338.01000000000005</ele>
   </trkpt>
   <trkpt lat="41.585210000000004" lon="1.6276800000000002">
    <ele>338.4200000000001</ele>
   </trkpt>
   <trkpt lat="41.58531000000001" lon="1.62772">
    <ele>338.66</ele>
   </trkpt>
   <trkpt lat="41.58534" lon="1.62762">
    <ele>338.56</ele>
   </trkpt>
   <trkpt lat="41.585260000000005" lon="1.6275700000000002">
    <ele>338.47</ele>
   </trkpt>
   <trkpt lat="41.5852" lon="1.62749">
    <ele>338.41</ele>
   </trkpt>
   <trkpt lat="41.58556334150574" lon="1.6265200108641644">
    <ele>339.01000000000005</ele>
   </trkpt>
   <trkpt lat="41.58592667485891" lon="1.6255500108113652">
    <ele>340.09</ele>
   </trkpt>
   <trkpt lat="41.586290000000005" lon="1.6245800000000001">
    <ele>341.12</ele>
   </trkpt>
   <trkpt lat="41.58632" lon="1.6244200000000002">
    <ele>341.59</ele>
   </trkpt>
   <trkpt lat="41.58616000000001" lon="1.6248">
    <ele>341.47</ele>
   </trkpt>
   <trkpt lat="41.58595500130271" lon="1.625340001610782">
    <ele>340.46000000000004</ele>
   </trkpt>
   <trkpt lat="41.585750000000004" lon="1.6258800000000002">
    <ele>340.22</ele>
   </trkpt>
  </trkseg>
 </trk>
</gpx>
